County,Market Name,Location,Address Line 1,City,State,Zip,Contact,Phone,Market Link,Operation Hours,Operation Season,FMNP,Latitude,Longitude,Location Points
Albany,Albany Jewish Community Ctr Farmers' Market,"340 Whitehall RoadAlbany, NY 12208",340 Whitehall Rd,Albany,NY,12208,Linda Finkle,5184386651,http://www.saajcc.org,Thursday  3pm-6pm,May 23 - October 3,Y,42.64815,-73.8077,"340 Whitehall Rd
(42.64815, -73.8077)"
Albany,Altamont Farmers' Market,"Altamont Free Library,181 Main St.",181 Main Street,Altamont,NY,12009,Linda Cure,5184563150,,M/T/TR/F  11am-6pmSat/Sun  10am-2pm,July 1 - September 1,Y,42.70149,-74.03256,"181 Main Street
(42.70149, -74.03256)"
Albany,Capital District Farmers' Market in Menands,"Pavillion at 381 BroadwayMenands, wholesale",381 Broadway,Menands,NY,12204,Elizabeth Krug,5188579505,,Saturday  9am-1pm,May 4 - October 26,Y,42.69621,-73.72001,"381 Broadway
(42.69621, -73.72001)"
Albany,CDPHP Farmers' Market,"CDPHP prkg lot, off Washington Ave.500 Patroon Creek Blvd., Albany",500 Patroon Creek Bvld.,Albany,NY,12206,Lori Cammett,5186415623,http://www.cdphp.com,Thursday  11am-1:30pm,May 23 - October 3,Y,42.68485,-73.80513,"500 Patroon Creek Bvld.
(42.68485, -73.80513)"
Albany,Cohoes Farmers' Market,"Remsen St. lot,185 Remsen St.",185 Remsen St,Cohoes,NY,12047,Diane Conroy-LaCivita,5182382232,http://www.cohoesfarmersmarket.com,Friday  4pm-7pm,June 7 - October 4,Y,42.77161,-73.70068,"185 Remsen St
(42.77161, -73.70068)"
Albany,Colonie Farmers' Market,"580 Albany Shaker Rd.,Loudonville",580 Albany Shaker Rd,Colonie,NY,12211,Alicia Osur,5187882760,http://www.colonie.org,Saturday  9am-1pm,May 18 - September 14,Y,42.71016,-73.78029,"580 Albany Shaker Rd
(42.71016, -73.78029)"
Albany,Delaware Area Neighborhood Farmers' Market,"Delaware Branch Library,331 Delaware Ave., Albany",331 Delaware Ave,Albany,NY,12209,Louise McNeilly,5184320516,,Tuesday  4pm-7pm11/6-11/19 3pm-6pm,June 11 - November 19,Y,42.64305,-73.77824,"331 Delaware Ave
(42.64305, -73.77824)"
Albany,Delmar Farmers' Market,"Methodist Church Lot, 428 Kenwood Ave., Delmar 12054",428 Kenwood Ave,Delmar,NY,12054,Annette Van Auken,5187322991,,Tuesday  2:30pm-6pm,May 7 - November 26,Y,42.62265,-73.83631,"428 Kenwood Ave
(42.62265, -73.83631)"
Albany,Downtown Albany Farmers' Market,"Pine St. & Broadway,Off Maiden Lane, Albany, NY 12207",Broadway and Pine St.,Albany,NY,12207,Annette Van Auken,5187322991,,Thursday  11am-2pm,May 9 - October 31,Y,42.65026,-73.75045,"Broadway and Pine St.
(42.65026, -73.75045)"
Albany,Empire State Plaza Farmers' Market,Empire State Plaza(Winter - South Concourse),156 State St,Albany,NY,12210,Jason Rumph,5184732982,http://www.empirestateplaza.org,Wed 10am-2pmFri 5/1-10/16 10-2,Year-round,Y,42.65093,-73.75709,"156 State St
(42.65093, -73.75709)"
Albany,Glenmont/ Mt Moriah Church Farmer's Market,"Mt. Moriah Church, across from Lowes262 Route 9W, Glenmont",262 Rt. 9W,Glenmont,NY,12077,Lisa West,5185262734,,Thursday  3pm-6pm,June 6 - August 29,Y,42.61076,-73.7864,"262 Rt. 9W
(42.61076, -73.7864)"
Albany,Harriman State Campus Farmers' Market,"Harriman State Office CampusVendor Park, Albany",1220 Washington Ave,Albany,NY,12203,Jason Rumph,5184732982,http://www.empirestateplaza.org,Thursday  10am-2pm,May 2 - October 17,Y,42.68035,-73.81041,"1220 Washington Ave
(42.68035, -73.81041)"
Albany,Hilltown Community Farmers' Market,"1652 Helderberg Trail, Berne Masonic Lodge, Berne",1652 Helderberg Trail,Berne,NY,12023,Amy Pokorny,5188721879,http://www.hilltowncommunitymarket.org,Saturday  9am-12 Noon,June 1 - October 12,Y,42.62506,-74.13506,"1652 Helderberg Trail
(42.62506, -74.13506)"
Albany,Voorheesville Farmers' Market,"First United Methodist lot,68 Maple Ave.",68 Maple Ave,Voorheesville,NY,12186,Dianne Luci,5187654536,,Wed  3:30pm-6:30pm,June - October,Y,42.64892,-73.92991,"68 Maple Ave
(42.64892, -73.92991)"
Allegany,Alfred Farmers' Market,"Village Band Stand, Main St.(Winter - McLane Gym, Main St.)",Main Street and Saxon Drive,Alfred,NY,14802,Chris Romanchock,6075879478,http://www.alfredfarmersmarket.com,Sunday  11am-3pm,July 21 - November 17,Y,42.25396,-77.7904,"Main Street and Saxon Drive
(42.25396, -77.7904)"
Allegany,Angelica Farmers' Market,Angelica Park Circle,28 Park Cir,Angelica,NY,14709,Bob Jones,5854667422,,Saturday  9am-1pm,June 15 - October 5,Y,42.30553,-78.01631,"28 Park Cir
(42.30553, -78.01631)"
Allegany,Belmont Farmers' Market,"Grange Hall Lawn, 32 Willets Ave, Rt 219",32 Willets Ave,Belmont,NY,14813,Phyllis Couture,7169423710,,Thursday  11am-5pm,May 23 - October 31,Y,42.22604,-78.03977,"32 Willets Ave
(42.22604, -78.03977)"
Allegany,Harvest Partners Bolivar Farmers' Market,Bolivar Fire Hall,Bolivar Fire Hall,Bolivar,NY,14715,Halle Reed,5856100565,,Monday  10am-2pm,June 10 - September 30,Y,42.06395,-78.16803,"Bolivar Fire Hall
(42.06395, -78.16803)"
Allegany,Harvest Partners Cuba Farmers' Market,"Cuba Fire Hall,51 E. Main St.",51 E Main St,Cuba,NY,14727,Halle Reed,5856100565,,Thursday  10am-1pm,June 27 - October 3,Y,42.21829,-78.27295,"51 E Main St
(42.21829, -78.27295)"
Allegany,Harvest Partners Fillmore Farmers' Market,"Fillmore Fire Hall,20 South Genesee St.",20 South Genesee St,Fillmore,NY,14735,Halle Reed,5856100565,,Thursday  10am-1pm,June 27 - September 19,Y,42.46485,-78.11229,"20 South Genesee St
(42.46485, -78.11229)"
Allegany,Wellsville Farmers' Market,"Jones Memorial Hospital,N. Main St.",191 North Main St,Wellsville,NY,14895,Halle Reed,5856100565,,Thursday  12 Noon-6pm,May 23 - October 3,Y,42.12242,-77.95056,"191 North Main St
(42.12242, -77.95056)"
Bronx,Bissel Gardens Farmers' Market,"Baychester Ave. & E. 241 St.,Bronx",Baychester Ave and East 241st St,Bronx,NY,10470,Heather Warren-Dombrowa,3474272547,http://www.justfood.org,Wed/Sat  9am-5pmSaturday  9am-5pm,July 10 - November 23,Y,40.90154,-73.8469,"Baychester Ave and East 241st St
(40.90154, -73.8469)"
Bronx,Bronx Borough Hall Greenmarket,Grand Concourse161st & 162nd St.,901 Grand Concourse,Bronx,NY,10452,Chelsea Whittaker,2127887476,http://www.grownyc.org,Tuesday  8am - 4pm,June 4 - November 26,Y,40.82715,-73.92278,"901 Grand Concourse
(40.82715, -73.92278)"
Bronx,Harvest Home Bronx Terminal Farmers' Market,"Bronx Terminal Mall,Between E. 150th and E. 151st Sts., and River Ave.",151st Street and River Avenue,Bronx,NY,10456,Maritza Owens,2128283361,http://www.harvesthomefm.org,Saturday  10am-5pm,July 6 - November 16,Y,40.82284,-73.92875,"151st Street and River Avenue
(40.82284, -73.92875)"
Bronx,Harvest Home Co-op City Farmers' Market,"Parking Lot 3, W side Co-op City Blvd.N side of Bellamy Loop",Co-Op City Blvd and Bellamy Loop,Bronx,NY,10475,Maritza Owens,2128283361,http://www.harvesthomefm.org,Saturday  8am-4pm,July 6 - November 16,Y,40.87225,-73.8244,"Co-Op City Blvd and Bellamy Loop
(40.87225, -73.8244)"
Bronx,Harvest Home Echo Park Farmers' Market,Ryer St. and Burnside Ave.,East Burnside Ave and Ryer Ave,Bronx,NY,10457,Maritza Owens,2128283361,http://www.harvesthomefm.org,Wednesday  8am-4pm,July 10 - November 20,Y,40.85085,-73.90148,"East Burnside Ave and Ryer Ave
(40.85085, -73.90148)"
Bronx,Harvest Home Forest Ave. Farmers' Market,"Forest Ave., btwn Westchester Ave. &  E. 156th St.",East 156st St and Forest Ave,Bronx,NY,10455,Maritza Owens,2128283361,http://www.harvesthomefm.org,Wednesday  8am-4pm,July 10 - November 20,Y,40.81815,-73.90624,"East 156st St and Forest Ave
(40.81815, -73.90624)"
Bronx,Harvest Home Jacobi  Hospital Farmers' Market,"1400 Pelham Parkway,at Eastchester Rd.",1400 Pelham Pkwy,Bronx,NY,10461,Maritza Owens,2128283361,http://www.harvesthomefm.org,Tuesday  8am-4pm,June 11 - November 19,Y,40.85407,-73.8469,"1400 Pelham Pkwy
(40.85407, -73.8469)"
Bronx,Harvest Home Jerome Ave. Farmers' Market,"Plaza Drive, btwn 170th St. & Elliot Place",Jerome Ave and East 170th St,Bronx,NY,10452,Maritza Owens,2128283361,http://www.harvesthomefm.org,Friday  8am-4pm,July 5 - November 15,Y,40.84024,-73.91763,"Jerome Ave and East 170th St
(40.84024, -73.91763)"
Bronx,Harvest Home Mt. Eden Farmers' Market,"Mt. Eden & Morris Aves., near Bronx-Lebanon Hospital",Mt Eden Pkwy and Morris Ave,Bronx,NY,10457,Maritza Owens,2128283361,http://www.harvesthomefm.org,Thursday  8am-4pm,May 16 - November 14,Y,40.84306,-73.90955,"Mt Eden Pkwy and Morris Ave
(40.84306, -73.90955)"
Bronx,Harvest Home North Central Bronx Farmers' Market,Mosholu Parkway North & Jerome Ave.,Jerome Ave and East Mosholu Pkwy North,Bronx,NY,10467,Maritza Owens,2128283361,http://www.harvesthomefm.org,Wednesday  8am-4pm,July 10 - November 20,Y,40.88038,-73.88378,"Jerome Ave and East Mosholu Pkwy North
(40.88038, -73.88378)"
Bronx,Harvest Home Sunday Farmers' Market,"Grand Concourse & E. 165th St.,  at Bronx Museum of the Arts",Grand Concourse and East 165st St,Bronx,NY,10456,Maritza Owens,2128283361,http://www.harvesthomefm.org,Sunday  8am-4pm,July 7 - November  17,Y,40.83086,-73.92033,"Grand Concourse and East 165st St
(40.83086, -73.92033)"
Bronx,Hunts Point Farmers' Market,"Monsignor Raul del Valle Sq.(subway#6)Southern Blvd., E. 163rd & Bruckner",Southern Blvd and East 163rd St,Bronx,NY,10459,Doug Ornstein,9149234837,http://www.downtoearthmarkets.com,Wed/Sat  8:30am-4pm,June 26 - November 23,Y,40.82099,-73.89167,"Southern Blvd and East 163rd St
(40.82099, -73.89167)"
Bronx,Kingsbridge Heights Farmers Market,"Kingsbridge Heights Comm. Ctr,3101 Kingsbridge Terrace, Bronx",3101 Kingsbridge Terrace,Bronx,NY,10463,Sadie Mahoney,7188840700,http://www.khcc-nyc.org,Friday  11am-7pm,July 5 - September 6,Y,40.87758,-73.90072,"3101 Kingsbridge Terrace
(40.87758, -73.90072)"
Bronx,La Familia Verde Farmers' Market,"Tremont Park, on Tremont Ave.;btwn LaFontaine & Arthur Aves.",East Tremont Ave and Arthur Ave,Bronx,NY,10457,Heidi Hynes,7185831765,http://www.lafamiliaverde.org,Tuesday  8am-2pm,July 9 - November 12,Y,40.8464,-73.89337,"East Tremont Ave and Arthur Ave
(40.8464, -73.89337)"
Bronx,"Learn it, Grow it, Eat it Youthmarket",169th St. and Boston Rd.McKinley Square (Parks),Boston Rd and East 169th St,Bronx,NY,10456,Ryan Morningstar,5089442083,,Wed  10am-2:30pm,July 10 - November 20,Y,40.83117,-73.90032,"Boston Rd and East 169th St
(40.83117, -73.90032)"
Bronx,Lincoln Hospital Greenmarket,149th St. btw Park & Morris Aves.,East 149th St and Morris Ave,Bronx,NY,10451,Chelsea Whittaker,2127887476,http://www.grownyc.org,Tue/Fri  8am - 3pm,June 28 - November 22,Y,40.81739,-73.92276,"East 149th St and Morris Ave
(40.81739, -73.92276)"
Bronx,Marble Hill Youthmarket,"225th St., btw Broadway & Exteriorbtwn Marshalls & Applebees",Broadway and West 225th St,Bronx,NY,10463,Ryan Morningstar,5089442083,,Thursday  2pm-6pm,July 11 - November 21,Y,40.87424,-73.91036,"Broadway and West 225th St
(40.87424, -73.91036)"
Bronx,Mott Haven Farmers' Market,"Padre Plaza Success Community Garden,E. 139th St. & 283 St. Ann's Ave.",283 Saint Anns Ave,Bronx,NY,10454,Sheila Young,7189241143,,Wednesday  10am-4pm,June 26 - November 13,Y,40.80789,-73.91709,"283 Saint Anns Ave
(40.80789, -73.91709)"
Bronx,New York Botanical Garden Greenmarket,Mosholu Gate on Southern Blvd btwMosholu Pkwy and Bedford Park Blvd,Dr Theodore Kazimiroff Blvd and Mosholu Pkwy,Bronx,NY,10458,Chelsea Whittaker,2127887476,http://www.grownyc.org,Wednesday  9am-3pm,June 19 - November 27,Y,40.86771,-73.8796,"Dr Theodore Kazimiroff Blvd and Mosholu Pkwy
(40.86771, -73.8796)"
Bronx,Northeast Bronx Farmers' Market,"Haffen Park, Hammersley & Wickham Aves.",Hammersley Ave and Wickham Ave,Bronx,NY,10469,Nate Dukes,7188629687,,Saturday  8am-5pm,July 6 - November 16,Y,40.87268,-73.83912,"Hammersley Ave and Wickham Ave
(40.87268, -73.83912)"
Bronx,Parkchester/ Virginia Park Greenmarket,Westchester Ave. & White Plains Rd.,Westchester Ave and White Plains Rd,Bronx,NY,10472,Chelsea Whittaker,2127887476,http://www.grownyc.org,Friday  8am - 4pm,June 14 - November 22,Y,40.83283,-73.8627,"Westchester Ave and White Plains Rd
(40.83283, -73.8627)"
Bronx,Poe Park Greenmarket,btw Grand Concourse & Valentine192 Street,Grand Concourse and East 192nd St,Bronx,NY,10458,Chelsea Whittaker,2127887476,http://www.grownyc.org,Tuesday  8am - 3pm,July 2 - November 19,Y,40.86417,-73.8956,"Grand Concourse and East 192nd St
(40.86417, -73.8956)"
Bronx,Project EATS Hegney Place Farmers' Market,"Rae Street,Bronx",Rae Street,Bronx,NY,10455,Michelle Hodges,2126121528,http://www.projecteats.org,Saturday  8am-12 Noon,June 8 - November 23,Y,40.81752,-73.91232,"Rae Street
(40.81752, -73.91232)"
Bronx,Riverdale Neighborhood House Youthmarket,"W. 256th St. & Mosholu, RiverdaleNeighborhood House Property",5521 West 226th St,Bronx,NY,10466,Ryan Morningstar,5089442083,,Thursday  3pm-7pm,July 11 - November 21,Y,40.90388,-73.90313,"5521 West 226th St
(40.90388, -73.90313)"
Bronx,Riverdale Y Sunday Farmers' Market,"Independence Ave,W. 237th St., BronxMiddle School 141",Independence Ave and W 237 Street,Bronx,NY,10463,Marti Michael,7185488200,http://www.riverdaley.org,Sunday  9am-2pm,May 5 - November 24,Y,40.88836,-73.91311,"Independence Ave and W 237 Street
(40.88836, -73.91311)"
Bronx,Roberto Clemente Plaza Youthmarket,"Pedestrian Plaza on 3rd Ave.Btwn 149th & 148th, Bronx",3rd Ave and 148th Street,Bronx,NY,10455,Ryan Morningstar,5089442083,,Wednesday  9am-3pm,July 10 - November 20,Y,40.81553,-73.91858,"3rd Ave and 148th Street
(40.81553, -73.91858)"
Bronx,Taqwa Community Farmers' Market,"90 W. 164th St. & Ogden Ave. In garden, Bronx",90 West 164th St,Bronx,NY,10452,Bobby Watson,7188727282,http://www.justfood.org/cityfarms/markets,Saturday  8am-4pm,June 29 - November 16,Y,40.83251,-73.92886,"90 West 164th St
(40.83251, -73.92886)"
Bronx,The Heights Community Farmers' Market,"University Ave. and W. 181 Street,The Bronx",University Ave and W 181st Street,Bronx,NY,10453,Rob Moore,7185083194,http://www.bronxworks.org,Thursday  9am-3pm,July 11 - October 31,Y,40.8572,-73.90974,"University Ave and W 181st Street
(40.8572, -73.90974)"
Bronx,Wholesale Greenmarket,"800 Food Center Drive,Hunts Point, Bronx",800 Food Center Dr,Bronx,NY,10474,Chelsea Whittaker,2127887476,http://www.grownyc.org,Mon-Sat  2am-8am,July - November,Y,40.80234,-73.87367,"800 Food Center Dr
(40.80234, -73.87367)"
Broome,Binghamton/Otsiningo Park Farmers' Market,"Otsiningo Park, Upper Front St., Binghamton, NY 13905","Bevier St and Otsiningo Park,",Binghamton,NY,13905,Peter D. Reynolds,6078623599,,Saturday  9am-1pm,May 4 - November 23,Y,42.11984,-75.90493,"Bevier St and Otsiningo Park,
(42.11984, -75.90493)"
Broome,Downtown Binghamton Farmers' Market,"Court House Square, Collier St.",Collier St and Court St,Binghamton,NY,13901,Eric Denk,6072069471,http://www.binghamtonfarmersmarket.com,Tue/Fri  9am-2pm,June 7 - October 29,Y,42.09867,-75.91159,"Collier St and Court St
(42.09867, -75.91159)"
Broome,Koo Koose Farmers' Market,"Park on Front Street, near flag polenear Village Hall & Movie Theater",147 NYS Bicycle Route 17,Deposit,NY,13754,Dorothy Crantz,6074672956,,Saturday  9am-12:30pm,June 22 - September 7,Y,42.06078,-75.42563,"147 NYS Bicycle Route 17
(42.06078, -75.42563)"
Broome,Vestal Farmers' Market,"Library parking lot, near museum320 Vestal Pkwy E (Rt. 434)",320 Vestal Pkwy,Vestal,NY,13850,Karyn Anne Petracca,6077980041,,Sat/Wed  9am-1pm,May 25 - November 20,Y,42.08533,-76.05903,"320 Vestal Pkwy
(42.08533, -76.05903)"
Cattaraugus,Franklinville Farmers' Market,13 Park Square (Route 16),13 Park Sq,Franklinville,NY,14737,Phyllis Couture,7169423710,,Wednesday  3pm-6pm,May 29 - October 30,Y,42.33718,-78.45726,"13 Park Sq
(42.33718, -78.45726)"
Cattaraugus,Olean Southern Tier Farmers' Market,"Tractor Supply Store,1900 Constitution Ave., Olean",1900 Constitution Ave,Olean,NY,14760,Phyllis Couture,7169423710,,Friday  2pm-7pm,May 17 - October 25,Y,42.08294,-78.45503,"1900 Constitution Ave
(42.08294, -78.45503)"
Cattaraugus,R.E.A.P. Ellicotville Farmers' Market,"United Church of Ellicotville,53 Elizabeth St.",53 Elizabeth Street,Ellicottville,NY,14731,Mark Schindlbeck,7166769180,http://www.reapfarmersmarket.com,Friday  2pm-6pm,June 21 - October 4,Y,42.27628,-78.67365,"53 Elizabeth Street
(42.27628, -78.67365)"
Cattaraugus,R.E.A.P. Olean Farmers' Market,"Jamestown Community College,Olean Campus parking lot, Union St.",Union St and Sullivan St,Olean,NY,14760,Mark Schindlbeck,7166769180,http://www.reapfarmersmarket.com,Saturday  8am-2pm,May 11 - October 26,Y,42.08149,-78.4299,"Union St and Sullivan St
(42.08149, -78.4299)"
Cattaraugus,Salamanca Farmers' Market,"12 Park Ave.,Jefferson Park",12 Park Ave,Salamanca,NY,14779,Phyllis Couture,7169423710,,Tuesday  11am-5pm,May 21 - October 29,Y,42.15496,-78.71739,"12 Park Ave
(42.15496, -78.71739)"
Cayuga,Auburn Farmers' Market,96 State StreetCurley's Restaurant Pkg Lot,96 State Street,Auburn,NY,13021,Mark Soper,3152556871,http://www.auburnfarmerscoopmarketinc.com,Tue/Thu/Sat  7am-2pm,June 1 - October 31,Y,42.93403,-76.57004,"96 State Street
(42.93403, -76.57004)"
Cayuga,Moravia Farmers' Market,"Kinney's Drug parking lot, 130 Main St.",130 Main St,Moravia,NY,13118,Barbara Flynn,3154962235,,Thursday  10am-5pm,June 6 - October 31,Y,42.71209,-76.42079,"130 Main St
(42.71209, -76.42079)"
Cayuga,Niles Farmers' Market,"Niles Town Hall,5923 New Hope Rd., Moravia",5923 New Hope Rd.,Moravia,NY,13118,John DeWitt,3154970142,,Saturday  10am-1pm,May 25 - October 26,Y,42.79746,-76.36609,"5923 New Hope Rd.
(42.79746, -76.36609)"
Cayuga,Union Springs Farmers' Market,"Cayuga St., at the GazeboState Route 90",Chapel Street and Route 90,Union Springs,NY,13160,Casi Head,3157302711,,Saturday  8:30am-12:30pm,May 25 - October 19,Y,42.84224,-76.69195,"Chapel Street and Route 90
(42.84224, -76.69195)"
Chautauqua,Downtown Jamestown Farmers' Market,"Foundry Alley btwn 2nd & 3rd Sts.,Renaissance Center",119 West 3rd St,Jamestown,NY,14701,Tiffany Conti,7166642477,http://www.jrconline.org,Friday  10am-3pm,June 7 - October 25,Y,42.09605,-79.24317,"119 West 3rd St
(42.09605, -79.24317)"
Chautauqua,Falconer Farmers' Market,"Davis Park,corner W. Main & Homestead Sts.",W Main St and Homestead St,Falconer,NY,14733,DeEtte Dispenza,7166654400,,Saturday  9am-2pm,June 1 - October 26,Y,42.11763,-79.19952,"W Main St and Homestead St
(42.11763, -79.19952)"
Chautauqua,Fredonia Farmers' Market,"9-11 Church St., Village Hall in Baker Commons",11 Church St,Fredonia,NY,14063,Mary Jane Starks,7166802844,,Saturday  8am-1pm,May - October,Y,42.44054,-79.33234,"11 Church St
(42.44054, -79.33234)"
Chautauqua,Lakewood Farmers' Market,Chautauqua Ave.,Chautauqua Ave and West Second St,Lakewood,NY,14750,Joe Johnson,7167638557,http://www.lakewoodny.com,Tuesday  2pm-6pm,June 4 - September 24,Y,42.10184,-79.32623,"Chautauqua Ave and West Second St
(42.10184, -79.32623)"
Chautauqua,Westfield Farmers' Market,"Moore Park, corner of Main & Portage",Main St and Portage St,Westfield,NY,14787,Arianne Correll,7166401166,http://www.westfieldny.com/farmersmarket,Saturday  9am-2pm,May 25 - October 26,Y,42.32195,-79.57808,"Main St and Portage St
(42.32195, -79.57808)"
Chemung,Elmira Eastside Farmers' Market,"West Lawn of Holiday Inn,760 E. Water St.",760 East Water St,Elmira,NY,14901,Anne Hughes,6077344453,http://counties.cce.cornell.edu/chemung,Friday  3pm-6pm,June 28 - October 18,Y,42.08905,-76.7922,"760 East Water St
(42.08905, -76.7922)"
Chemung,Elmira Grove Park Farmers' Market,"4th St. & Walnut Ave.,Grove Park, Elmira",Walnut Ave and West 4th St,Elmira,NY,14901,Liz Martin,6075464535,,Monday  3pm - 6pm,June 3 - October 28,Y,42.0921,-76.82013,"Walnut Ave and West 4th St
(42.0921, -76.82013)"
Chemung,Elmira Wisner Park Farmers' Market,"Wisner Park, Church & Main Sts.",North Main St and West Church St,Elmira,NY,14901,Jennifer Herrick,6077340341,http://www.elmiradowntown.com,Thursday  10am-2pm,June 6 - September 26,Y,42.08984,-76.80826,"North Main St and West Church St
(42.08984, -76.80826)"
Chemung,Horseheads/Teal Park Farmers' Market,"Teal Park, HorseheadsCorner S. Main and Steuben Sts.",502 South Main St,Horseheads,NY,14845,Debbie Gessick,6077397698,,Saturday  10am-2pm,June 22 - September,Y,42.16431,-76.81942,"502 South Main St
(42.16431, -76.81942)"
Chenango,Chenango County Farmers' Market,"East Side Park,Norwich",East Main St and East Park Pl,Norwich,NY,13815,Kenneth Walbrecht,6073348310,,Wed/Sat  8am-1pm,June 8 - October 30,Y,42.53132,-75.5226,"East Main St and East Park Pl
(42.53132, -75.5226)"
Chenango,Coventry Farmers' Market,"Coventry Fire Station,North Rd.",North Rd and Volunteer Ln,Coventry,NY,13778,Ellen Evans,6076567319,,Sunday  12 Noon - 6pm    Tuesday  3pm - 6:30pm,June - November,Y,42.31667,-75.63847,"North Rd and Volunteer Ln
(42.31667, -75.63847)"
Chenango,Norwich Farmers' Market,East Park Place,98 East Park Place,Norwich,NY,13815,Drew Piaschyk,6073344928,,Wed 10am-6pmFriday 1pm - 6pm,November 1 - May 31,Y,42.53136,-75.52262,"98 East Park Place
(42.53136, -75.52262)"
Clinton,Chateaugay Lake Farmers' Market,"Hollywood Inn, Rt 374, lake narrows, west of Merrill",4939 State Route 374,Merrill,NY,12955,Vicki Lesniak,5187721064,http://www.adirondackfarmersmarket.com,Saturday  10am-2pm,June 22 - August 31,Y,44.78076,-73.98243,"4939 State Route 374
(44.78076, -73.98243)"
Clinton,Keeseville Farmers Market,"Riverside Park,behind Library on Front St.",1721 Front St,Keeseville,NY,12944,Vicki Lesniak,5187721064,http://www.adirondackfarmersmarket.com,Wednesday  9am-1pm,June 19 - August 28,Y,44.50436,-73.48061,"1721 Front St
(44.50436, -73.48061)"
Clinton,Plattsburgh Farmers' & Crafters Market,City parking lotDurkee & Broad Sts.,Broad St and Durkee St,Plattsburgh,NY,12901,Patricia Parker,5183100719,http://www.plattsburghfarmersandcraftersmarket.com,"Sat  9am-2pm  Start June, Wed also 10-2",May 11 - October 12,Y,44.69535,-73.45226,"Broad St and Durkee St
(44.69535, -73.45226)"
Columbia,Copake Farmers' Market,Church St.,Church St. and Pioneer Dr.,Copake,NY,12516,Roberta Roll,5183290384,,Saturday  9am-1pm,June 8 - October 26,Y,42.1034,-73.54957,"Church St. and Pioneer Dr.
(42.1034, -73.54957)"
Columbia,Hillsdale Farmers' Market,"Roeliff Jansen Park,9140 Route 22",9140 Route 22,Hillsdale,NY,12529,Willa Horton,5183257950,,Saturday  9am-1pm,June 1 - October 12,Y,42.16548,-73.51686,"9140 Route 22
(42.16548, -73.51686)"
Columbia,Hudson Farmers' Market,"DMV parking lot, North 6th & Columbia Sts.",Columbia St and North 6th St,Hudson,NY,12534,Eugene Shetsky,5188287217,http://www.cityofhudson.org,Saturday  9am-1pm,May 11 - November 23,Y,42.24866,-73.78369,"Columbia St and North 6th St
(42.24866, -73.78369)"
Columbia,Kinderhook Farmers' Market,"Village Green, Center of Village",US Route 9 and Hudson St,Kinderhook,NY,12106,Kim Voltz,5187559293,,Saturday  8:30pm-12:30pm,May 4 - October 12,Y,42.39539,-73.69819,"US Route 9 and Hudson St
(42.39539, -73.69819)"
Columbia,Lebanon Valley Farmers' Market,"On the green at Midtown Mall,501 Route 20",501 Route 20,New Lebanon,NY,12125,Lori Bashour,5182885836,,Sunday  10am-2pm,May 19 - October 13,Y,42.46658,-73.39243,"501 Route 20
(42.46658, -73.39243)"
Columbia,Philmont Farmers' Market,"116 Main St., parking lotAlbert Tripp Center",Main St and Elm St,Philmont,NY,12565,Sally Baker,5186727556,http://www.pbinc.org,Sunday  10am-1pm,June 16 - October 13,Y,42.24868,-73.65097,"Main St and Elm St
(42.24868, -73.65097)"
Cortland,Cincinnatus Farmers' Market,"Cortland-Chenango Rural Services,2704 Lower Cincinnatus Rd.",2704 Lower Cincinnatus Rd,Cincinnatus,NY,13040,Sister Kathleen Heffron,6078633828,,Saturday  9am-12 Noon,May 11 - October 26,Y,42.54094,-75.8959,"2704 Lower Cincinnatus Rd
(42.54094, -75.8959)"
Cortland,City of Cortland Farmers' Market,"Main St., btwn Court & Orchard Sts.",Main St and Orchard St,Cortland,NY,13045,Julie Maddren,6077588373,,Tue/Sat  8am-2pm,June 1 - October 29,Y,42.60028,-76.18044,"Main St and Orchard St
(42.60028, -76.18044)"
Cortland,Homer Farmers' Market,Homer Village Green,South Main St and Central Park Pl,Homer,NY,13077,Tina Minervini,6075915979,http://www.homerfarmersmarket.com,Saturday  9am-1pm Wed 4:30pm-7pm,May 11 - October 26,Y,42.63596,-76.17862,"South Main St and Central Park Pl
(42.63596, -76.17862)"
Cortland,Virgil Farmers' Market,"Municipal Lawn,Town of Virgil",1208 Church Street,Virgil,NY,13045,Sandy Price,6078356711,,Sat  9am-1pm    Wed  4:30pm-7pm,June 1 - October 12,Y,42.50891,-76.19595,"1208 Church Street
(42.50891, -76.19595)"
Delaware,Delhi Farmers' Market,"Courthouse Square,Main St.",Main St and Court St,Delphi,NY,13753,Jerry Pellegrino,6077463775,,Wednesday  9am-2pm,June 5 - October 2,Y,42.27745,-74.91674,"Main St and Court St
(42.27745, -74.91674)"
Delaware,Deposit Farmers' Market,"First United Methodist ChurchWIC Clinic, 107 Second St.",107 Second St,Deposit,NY,13754,Jeanne Darling,6078656531,http://www.ccedelaware.org,Thu 8/15 - 10am - 2pmThu 9/19 - 10am - 2pm,Aug 15 & Sep 19,Y,42.06233,-75.4249,"107 Second St
(42.06233, -75.4249)"
Delaware,Hobart Community Farmers' Market,"Stamford Town Hall Green,101 Maple Ave., Village of Hobart",Maple Ave and Railroad Ave,Stamford,NY,13788,Andrew Flach,9178854490,http://www.hobartfarmersmarket.com,Friday  4pm-7pm,June 7 - September 27,Y,42.37016,-74.66867,"Maple Ave and Railroad Ave
(42.37016, -74.66867)"
Delaware,Pakatakan Farmers' Market,"Round Barn, 46676 State Hwy 30btwn Margaretville & Roxbury",46676 State Route 30,Margaretville,NY,12455,Gary Lamont,6077467261,,Saturday  9am-2pm,May 18 - October 12,Y,42.19991,-74.59656,"46676 State Route 30
(42.19991, -74.59656)"
Delaware,Sidney Farmers' Market,"Video Entertainment parking lot,89 Main St.",89 Main St,Sidney,NY,13838,Jeanne Darling,6078656531,http://www.ccedelaware.org,Tuesday  10am-2pm,July 2 - September 24,Y,42.31426,-75.39045,"89 Main St
(42.31426, -75.39045)"
Delaware,Walton Farmers' Market,"UHS Delaware Valley Hospital,2 Titus Place",2 Titus Place,Walton,NY,13856,Jeanne Darling,6078656531,http://www.ccedelaware.org,Wed 10am-2pm,Aug 7 & Sep 4,Y,42.16464,-75.12792,"2 Titus Place
(42.16464, -75.12792)"
Dutchess,Arlington Farmers' Market,"Vassar College Alumni Lawn, 123 Raymond Ave., Poughkeepsie",123 Raymond Ave,Poughkeepsie,NY,12603,Bob Legacy,8454712863,http://www.arlingtonhasit.org,Thursday  3pm-7pm,June 6 - October 24,Y,41.68187,-73.89636,"123 Raymond Ave
(41.68187, -73.89636)"
Dutchess,Hyde Park Farmers' Market,"Hyde Park Town Hall,4383 Route 9",4383 Route 9,Hyde Park,NY,12538,Dot Chenevert,8452299336,,Saturday  9am-2pm,June 1 - October 26,Y,41.79069,-73.93645,"4383 Route 9
(41.79069, -73.93645)"
Dutchess,Millerton Farmers' Market,Main St. & Railroad Plaza (Indoor - Gilmor Glass),2 Main Street,Millerton,NY,12546,Betsey McCall,5187894259,http://www.neccmillerton.org,"Saturday  9am-1pm(Jan - Apr, 2nd & 4th Sat, 10-2)",Year-round,Y,41.95258,-73.51208,"2 Main Street
(41.95258, -73.51208)"
Dutchess,Rhinebeck Farmers' Market,"Municipal lot, 61 East Market St.(Winter - Town Hall, 80 E. Market St)",61 East Market St,Rhinebeck,NY,12572,Cheryl Paff,9176921274,http://www.rhinebeckfarmersmarket.com,Sunday  10am-2pm(Dec - Apr- Alt. Sun),Year-round,Y,41.92738,-73.91021,"61 East Market St
(41.92738, -73.91021)"
Erie,Alden Farmers' Market,"Tractor Supply Plaza,13119 Broadway, Alden",13119 Broadway,Alden,NY,14004,Nancy Hughes,7169370103,http://www.aldenny.org,Saturday  8:30am-1pm,May 11 - October 5,Y,42.89828,-78.501,"13119 Broadway
(42.89828, -78.501)"
Erie,Blasdell Farmers' Market,3785 South Park AvenueDiPaolo's parking lot,3785 South Park Avenue,Hamburg,NY,14219,Erin Erickson,7166497917,http://www.hamburg-chamber.org,Wednesday  9am-2pm,May 1 - November 6,Y,42.79501,-78.82403,"3785 South Park Avenue
(42.79501, -78.82403)"
Erie,Buffalo/Clinton Bailey Farmers' Market,"1443-1517 Clinton St.,corner of Clinton & Bailey Sts.",Bailey Ave and Clinton St,Buffalo,NY,14206,John Parise,7168222466,,Saturday* 6am - 3pmSun - Friday 8am - 5pm(Winter-Sat* Only 6-12)(* FMNP Accepted),Year-round,Y,42.87204,-78.81997,"Bailey Ave and Clinton St
(42.87204, -78.81997)"
Erie,Clarence Hollow Farmers' Market,"Town parking lot, 10717 Main St. (Rt. 5)",10717 Main St,Clarence,NY,14031,Cheryl Anthony,7167591075,http://www.clarencehollow.org,Saturday  8am-1pm,June 1 - October 26,Y,42.98082,-78.58903,"10717 Main St
(42.98082, -78.58903)"
Erie,Downtown Buffalo Country Market,"Buffalo Place, Main St. btwn Court & Church Sts.",Main St and East Eagle St,Buffalo,NY,14202,Jackie Jonmaire,7168563150,http://www.buffaloplace.com,Tue/Thu  8am-2:30pm,May 16 - October 24,Y,42.88429,-78.87484,"Main St and East Eagle St
(42.88429, -78.87484)"
Erie,East Aurora Farmers' Market,"Aurora Village (TOPS) Plaza, Grey St.",123 Grey St,East Aurora,NY,14052,Carolyn Husarek,7166520951,,Sat/Wed  7am-1pm,May 4 - November 27,Y,42.76593,-78.63413,"123 Grey St
(42.76593, -78.63413)"
Erie,Elmwood-Bidwell Farmers' Market,"Elmwood Village, Elmwood Ave & Bidwell Pkwy",Elmwood Ave and Bidwell Pkwy,Buffalo,NY,14222,Karen Vilonen,7166915388,http://www.elmwoodmarket.org,Saturday  8am-1pm,May 11 - December 21,Y,42.92371,-78.87702,"Elmwood Ave and Bidwell Pkwy
(42.92371, -78.87702)"
Erie,Fox Run at Orchard Park Farmers' Market,"Orchard Park,One Fox Run Lane",1 Fox Run Ln,Orchard Park,NY,14127,Wendy Gladke,7166625001,,Thursday  9am - 1:30pm,May 9 - October 31,Y,42.76302,-78.77294,"1 Fox Run Ln
(42.76302, -78.77294)"
Erie,Hamburg Farmers' Market,"Village municipal parking lot, Main & Buffalo Sts., near Palace Theater",30 Buffalo St,Hamburg,NY,14075,Erin Erickson,7166497917,http://www.hamburg-chamber.org,Saturday  7:30am-1pm,May 4 - November 2,Y,42.71677,-78.82994,"30 Buffalo St
(42.71677, -78.82994)"
Erie,Holland Farmers' Market,"Municipal lot, Route 16btw Fire Hall & Ronnie's Pizzeria",49 North Main St,Holland,NY,14080,Marg Wnek,7165379590,,Sunday  8:30am-2pm,May 5 - November 24,Y,42.64204,-78.543,"49 North Main St
(42.64204, -78.543)"
Erie,Kenmore Farmers' Market,"2919 Delaware Ave.,at Delaware Rd.",2919 Delaware Ave,Buffalo,NY,14217,Katie Burd,7168741784,,Saturday  8am-12:30pm,June 22 - October 26,Y,42.96362,-78.8698,"2919 Delaware Ave
(42.96362, -78.8698)"
Erie,Springville/Gentner Farmers' Market,"Gentner Auction, 341 W. Main St. (Rt. 39)",341 West Main St,Springville,NY,14141,Donna Goldhawk,7165600198,,"Wednesday  7am-3pm(Dec-Apr, Wed 8-2)",Year-round,Y,42.50906,-78.67989,"341 West Main St
(42.50906, -78.67989)"
Erie,Williamsville Mill Farmers' Market,"56 E. Spring St., Williamsville",56 East Spring St,Williamsville,NY,14221,Ellie Grenauer,7169846572,http://www.williamsvillefarmersmarket.com,Saturday  8am-12:30pm,May 18 - October 26,Y,42.96367,-78.7446,"56 East Spring St
(42.96367, -78.7446)"
Essex,Elizabethtown Farmers' Market,Behind Adirondack Center Museum,7590 Court St,Elizabethtown,NY,12932,Vicki Lesniak,5187721064,http://www.adirondackfarmersmarket.com,Friday  9am-1pm,May 17 - October 11,Y,44.21505,-73.59094,"7590 Court St
(44.21505, -73.59094)"
Essex,Keene Farmers' Market,"Rt. 73, Marcy Airfield, 1 mi S of Rt. 9N jct.",2253 State Route 73,Keene Valley,NY,12943,Vicki Lesniak,5187721064,http://www.adirondackfarmersmarket.com,Sunday  9:30am-2pm,June 16 - October 13,Y,44.22067,-73.78561,"2253 State Route 73
(44.22067, -73.78561)"
Essex,Lake Placid Farmers' Market,"Lake Placid Center for the Arts, 17 Algonquin Dr., upper parking lot",17 Algonquin Dr,Lake Placid,NY,12946,Ian Ater,5188345012,http://www.ausablevalleygrange.com,Wednesday  9am-1pm,June 5 - October 23,Y,44.29367,-73.99766,"17 Algonquin Dr
(44.29367, -73.99766)"
Essex,Port Henry Farmers' Market,"Bonnie's Bistro parking lot,4264 Main St.",4264 Main St,Port Henry,NY,12974,Vicki Lesniak,5187721064,http://www.adirondackfarmersmarket.com,Wednesday  9am-1pm,June 26 - August 28,Y,44.0445,-73.45837,"4264 Main St
(44.0445, -73.45837)"
Essex,Schroon Lake Farmers' Market,"Town Hall parking lot,15 Leland Ave",Leland Ave and Broad St,Scroon Lake,NY,12870,Ian Ater,5188345012,http://www.ausablevalleygrange.com,Monday  9am-1pm,June 24 - September 2,Y,43.83665,-73.76049,"Leland Ave and Broad St
(43.83665, -73.76049)"
Essex,Ticonderoga Farmers' Market,Rt 9N at Hague Rd near Liberty Monument,State Route 9N and Hague Rd,Ticonderoga,NY,12883,Matt Courtright,5185856619,http://www.ticonderogany.com,Saturday  10am-1pm,July 29 - October 12,Y,43.84791,-73.43552,"State Route 9N and Hague Rd
(43.84791, -73.43552)"
Essex,Willsboro Farmers' Market,Route 22 - South of Chamberlain Bank,Maple St and NY Rt 22,Willsboro,NY,12996,Vicki Lesniak,5187721064,http://www.adirondackfarmersmarket.com,Thu  3:30pm - 6:30pm,June 13 - September 5,Y,44.36554,-73.3941,"Maple St and NY Rt 22
(44.36554, -73.3941)"
Franklin,Paul Smiths Farmers' Market,"Visitor's Interpretive Center,Route 30",8023 New York 30,Paul Smiths,NY,12970,Vicki Lesniak,5187721064,http://www.adirondackfarmersmarket.com,Friday  2pm-5pm,June 21 - September 20,Y,44.4485,-74.25941,"8023 New York 30
(44.4485, -74.25941)"
Franklin,Saranac Lake Farmers' Market,"Fusion Market,Across from boat launch",111 River St,Saranac Lake,NY,12983,Vicki Lesniak,5187721064,http://www.adirondackfarmersmarket.com,Tuesday  10am-2pm,May 21 - October 1,Y,44.32413,-74.12598,"111 River St
(44.32413, -74.12598)"
Franklin,Saranac Lake Village Farmers' Market,"Riverside Park, Main St. & River Sts.",River St and Main St,Saranac Lake,NY,12983,Ian Ater,5188345012,http://www.ausablevalleygrange.com,Saturday  9am-2pm,June 1 - October 26,Y,44.32503,-74.13178,"River St and Main St
(44.32503, -74.13178)"
Franklin,Tupper Lake Farmers' Market,Wild Center Museum,270 Hosley Ave,Tupper Lake,NY,12986,Vicki Lesniak,5187721064,http://www.adirondackfarmersmarket.com,Thursday  11am-3pm,June 13 - September 26,Y,44.2204,-74.44318,"270 Hosley Ave
(44.2204, -74.44318)"
Fulton,Gloversville Farmers' Market,"Elm Street Pavilion,btwn Church & Spring Sts.",9 Elm St,Gloversville,NY,12078,Anne Marie Johnson,5188636104,http://www.fultonmontgomeryfarmersmarket.org,Saturday  8:30am-12:30pm,May 4 - October 19,Y,43.05261,-74.34578,"9 Elm St
(43.05261, -74.34578)"
Fulton,Johnstown Farmers' Market,"Sir William Park,parking lot btwn Main and Church Sts.",Sir William Park,Johnstown,NY,12095,Anne Marie Johnson,5188636104,http://www.fultonmontgomeryfarmersmarket.org,Tuesday  3pm-6pm,May 21 - October 15,Y,43.01507,-74.37854,"Sir William Park
(43.01507, -74.37854)"
Fulton,Northville Farmers' Market,"Waterfront Park,behind Timeless Tavern",162 South Main St,Northville,NY,12134,Wendy Reu,5188634211,,Tue/Fri  2pm-5pm(Tue July 5-Sept 27),May 24 - October 11,Y,43.22568,-74.17102,"162 South Main St
(43.22568, -74.17102)"
Genesee,Batavia Farmers' Market,"K-Mart parking lot,8363 Lewiston Rd.",8363 Lewiston Rd,Batavia,NY,14020,Scott Christ,5853306161,,Tue/Fri  8am-4pm,June 4 - October 29,Y,43.00952,-78.2072,"8363 Lewiston Rd
(43.00952, -78.2072)"
Genesee,Downtown Batavia Farmers' Market,"109 Ellicott St., Ellicott (Rt. 63) & Center Sts.",109 Ellicott St,Batavia,NY,14020,Don Burkel,5853440900,http://www.downtownbataviany.com,Thursday  9am-3:30pm,June 20 - September 26,Y,42.99511,-78.18294,"109 Ellicott St
(42.99511, -78.18294)"
Genesee,Genesee Country Farmers' Market,"Batavia Downs Casino parking lot, 8315 Park Rd., Batavia",8315 Park Rd,Batavia,NY,14020,Sharon Brent,7165600853,http://www.gcfm.webs.com,Tue/Fri  8am-5pm,June 11 - October 29,Y,43.01001,-78.20528,"8315 Park Rd
(43.01001, -78.20528)"
Genesee,LeRoy Farmers' Market,Trigon Park,Trigon Park,Le Roy,NY,14482,Sharon Jeary,5857682527,http://www.villageofLeRoy.org,Saturday  9am-12:30pm,June 22 - October 12,Y,42.97756,-77.98592,"Trigon Park
(42.97756, -77.98592)"
Genesee,North Street Farmers' Market,"YWCA of Genesee County, Inc.301 North St., Batavia",301 North Street,Batavia,NY,14020,Christine Ditzel,5853435808,http://www.ywcagenesee.org,Sunday  10am-2pm,June 23 - September 29,Y,43.00569,-78.17281,"301 North Street
(43.00569, -78.17281)"
Greene,Coxsackie Riverside Farmers' Market,Coxsackie Riverside Park,1 Betke Blvd,Coxsackie,NY,12051,Deidre Meier,5185882821,,Wednesday  4pm-7pm,May 29 - September 18,Y,42.3524,-73.79703,"1 Betke Blvd
(42.3524, -73.79703)"
Hamilton,Speculator Farmers & Crafters Farmers' Market,Speculator Village Pavilion,State Route 30 and Elliot Ln,Speculator,NY,12164,Anna Smith,5185484521,http://www.speculatorchamber.com,Thursday  2pm-5pm,June 27 - September 26,Y,43.49674,-74.3607,"State Route 30 and Elliot Ln
(43.49674, -74.3607)"
Herkimer,Dolgeville Farmers' Market,Municipal parking lot btwn M&T Bank & Kinneys,12 North Helmer Ave,Dolgeville,NY,13329,Joseph Jablonski,3157177710,,Friday  8am-12 Noon,May - October,Y,43.10438,-74.77208,"12 North Helmer Ave
(43.10438, -74.77208)"
Herkimer,Herkimer/Early Birds Farmers' Market,"Aubuchon Hardware parking lot, 105 N. Caroline St.",105 North Caroline St,Herkimer,NY,13350,John Skinner,3158581025,,Thursday  9am-1pm,May 23 - October 31,Y,43.02386,-74.99374,"105 North Caroline St
(43.02386, -74.99374)"
Herkimer,Herkimer Farmers' Market,"Herkimer Arc Association parking lot,420 E. German St.",420 East German St,Herkimer,NY,13350,Cat Macera,3158950138,,Monday  1pm-7pm,May 20 - October 28,Y,43.03464,-74.9865,"420 East German St
(43.03464, -74.9865)"
Herkimer,Ilion Farmers' Market,Clapsaddle Farm 437 Otsego St. (State Rt 51 S),437 Otsego St,Ilion,NY,13357,James Parker,3158944660,,Fri  12 Noon-6pm    Sat  10am-5pm,Year-round,Y,43.00028,-75.04423,"437 Otsego St
(43.00028, -75.04423)"
Herkimer,Little Falls Farmers' Market,"M&T Bank parking lot, Albany St., Little Falls",501 East Main St,Little Falls,NY,13365,Mary Davis,3158662619,,Saturday  8am-12 Noon,May - October,Y,43.04308,-74.8589,"501 East Main St
(43.04308, -74.8589)"
Herkimer,Mohawk Farmers' Market,"Weller Park,41 West Main St.",41 West Main St,Mohawk,NY,13407,Marilyn Bridger,3158661671,,Wednesday  2pm-5pm,May 15 - October 9,Y,43.01075,-75.00846,"41 West Main St
(43.01075, -75.00846)"
Herkimer,Old Forge Farmers' Market,"Park Ave.,behind OF Hardware",Crosby Blvd and Park Ave,Old Forge,NY,13420,Nicholas Rose,3153693353,,Friday  1pm-5pm,June 28 - October 4,Y,43.70893,-74.97286,"Crosby Blvd and Park Ave
(43.70893, -74.97286)"
Herkimer,West Winfield Farmers' Market,"The Federated Church parking lot, 452 E. Main St.",452 E. Main St.,West Winfield,NY,13491,Patti Laymon,3158554256,,Wednesday  4pm-7pm,June 19 - October 23,Y,42.88486,-75.18946,"452 E. Main St.
(42.88486, -75.18946)"
Jefferson,Cape Vincent Farmers' Market,"Village Green,  Broadway St. (Rt. 12)",Broadway St and James St,Cape Vincent,NY,13618,Shelley Higgins,3156542481,http://www.capevincent.org,Saturday  8am-2pm,June 22 - October 12,Y,44.12838,-76.33472,"Broadway St and James St
(44.12838, -76.33472)"
Jefferson,Carthage Farmers' Market,"Farmers Market Pavilion, Riverside Dr.(behind Carthage Rescue Squad)",215 Spring St,Carthage,NY,13619,Lori Boland,3154933590,,Friday  7am-2pm,May 24 - October 25,Y,43.97798,-75.61225,"215 Spring St
(43.97798, -75.61225)"
Jefferson,Clayton Farmers' Market,Village Park Circle,300 Riverside Dr,Clayton,NY,13624,Beth Rusho,3156863771,http://www.1000islands-clayton.com,Thursday  10am-6pm,June 20 - September 12,Y,44.24333,-76.08579,"300 Riverside Dr
(44.24333, -76.08579)"
Jefferson,Greater Watertown-North Country Market,"317 Washington St., Dulles State Office Bldg.",317 Washington Street,Watertown,NY,13601,Michelle Farrell,3157884400,http://www.watertownny.com,Wed  6:30am-3pm,May 29 - October 2,Y,43.97173,-75.91117,"317 Washington Street
(43.97173, -75.91117)"
Jefferson,Monday Neighborhood Farmers' Market,"203 N. Hamilton St., Watertown,Cornell Cooperative Extension",203 North Hamilton St,Watertown,NY,13601,Delta Keeney,3157881933,http://www.watertownmondaymarket.com,Monday  3pm-6pm,July 8 - October 7,Y,43.97306,-75.89492,"203 North Hamilton St
(43.97306, -75.89492)"
Jefferson,Philadelphia Farmers' Market,"Philadelphia Shopping Plaza,Route 11",2 South Main Street,Philadelphia,NY,13673,Mathew Montroy,3157838640,,Saturday  8am-5pm,May 18 - October 26,Y,44.14668,-75.7094,"2 South Main Street
(44.14668, -75.7094)"
Jefferson,Watertown Saturday Farmers' Market,"J.B. Wise Pavilion parking lot,175 Black River Parkway",175 Black River Parkway,Watertown,NY,13601,Samuel J. Biondolillo,3157732345,,Saturday  9am-2pm,June 8 - November 2,Y,43.97651,-75.90988,"175 Black River Parkway
(43.97651, -75.90988)"
Kings,Albee Square Farmers' Market,"Fulton St.,corner of Fulton and Bond Sts., Brooklyn",Fulton Street and Bond Street,Brooklyn,NY,11201,Johanna Safar,9143181067,,Thursday  10am-4pm    Saturday  11am-5pm,May 4 - November 23,Y,40.6897,-73.98296,"Fulton Street and Bond Street
(40.6897, -73.98296)"
Kings,Bartel-Pritchard Square Greenmarket,"Prospect Park West, at 15th St. (inside park entrance)",Bartel Pritchard Square,Brooklyn,NY,11215,Chelsea Whittaker,2127887476,http://www.grownyc.org,Wednesday  8am-3pm,May 1 - November 27,Y,40.66094,-73.97979,"Bartel Pritchard Square
(40.66094, -73.97979)"
Kings,Bay Ridge Greenmarket,"Walgreen's parking lot,Third Ave. & 95th St.",Third Ave and 95th St,Brooklyn,NY,11209,Chelsea Whittaker,2127887476,http://www.grownyc.org,Saturday  8am - 3pm,June 1 - November 23,Y,40.61724,-74.03362,"Third Ave and 95th St
(40.61724, -74.03362)"
Kings,Bensonhurst Greenmarket,"18th Ave between 81st & 82nd Streets, Brooklyn",8112 Cristoforo Colombo Blvd,Brooklyn,NY,11214,Chelsea Whittaker,2127887476,http://www.grownyc.org,Sunday 9am - 4pm,July 7 - November 23,Y,40.60971,-73.99971,"8112 Cristoforo Colombo Blvd
(40.60971, -73.99971)"
Kings,Boro Park Greenmarket,14th Ave. btw 49th & 50th Sts.,14th Ave and 49th St,Brooklyn,NY,11219,Chelsea Whittaker,2127887476,http://www.grownyc.org,Thursday  8am - 3pm,July 11 - November 21,Y,40.6337,-73.98992,"14th Ave and 49th St
(40.6337, -73.98992)"
Kings,Brooklyn Borough Hall Greenmarket,"Supreme Court Plaza, Court & Montague Sts.",Court St and Montague St,Brooklyn,NY,11201,Chelsea Whittaker,2127887476,http://www.grownyc.org,Tue/Thu/Sat  8am - 6pm,Year-round,Y,40.69375,-73.99047,"Court St and Montague St
(40.69375, -73.99047)"
Kings,Brooklyn Bridge Park Farmers' Market,"At end of Atlantic Ave at Pier 6,Brooklyn",Furman Street and Joralemon Street,Brooklyn,NY,11201,Doug Ornstein,9149234837,http://www.downtoearthmarkets.com,Sunday  11am-5pm,June 9 - December 1,Y,40.69389,-73.99923,"Furman Street and Joralemon Street
(40.69389, -73.99923)"
Kings,Brownsville Community Farmers' Market,"514 Rockaway Ave., BrooklynCorner of Rockaway & Sutter Ave.",514 Rockaway Ave,Brooklyn,NY,11212,Renee Murir,7183455000,http://www.bmsfhc.org,Saturday  8:30am-4:30pm,July 20 - November 09,Y,40.66746,-73.91048,"514 Rockaway Ave
(40.66746, -73.91048)"
Kings,Brownsville Pitkins Ave Youthmarket,"Thomas Boyland, south of Pitkin, west side",Thomas Boyland St and Pitkin Ave,Brooklyn,NY,11212,Ryan Morningstar,5089442083,,Saturday  9:30am-3:30pm,July 13 - November 23,Y,40.66925,-73.91358,"Thomas Boyland St and Pitkin Ave
(40.66925, -73.91358)"
Kings,Brownsville Rockaway Youthmarket,"Rockaway Ave, btwn Livonia Ave & Dumont",Rockaway Ave and Livonia Ave,Brooklyn,NY,11212,Ryan Morningstar,5089442083,,Friday  1pm - 6pm,July 12 - November 22,Y,40.66255,-73.90892,"Rockaway Ave and Livonia Ave
(40.66255, -73.90892)"
Kings,Bushwick I Farmers' Market,"Linden St.,btwn Broadway & Bushwick Aves.",Broadway and Linden St,Brooklyn,NY,11221,Travis Tench,6463939305,http://www.bushwickfarmersmarket.org,Wednesday  10am-6pm,June 5 - November 13,Y,40.68992,-73.92281,"Broadway and Linden St
(40.68992, -73.92281)"
Kings,Bushwick III Farmers' Market,"Broadway, btwn Halsey St. and Thomas Boyland",Halsey St and Broadway Ave.,Brooklyn,NY,11385,Travis Tench,6463939305,http://www.bushwickfarmersmarket.org,Thursday  10am-6pm,June 6 - November 14,Y,40.69952,-73.91106,"Halsey St and Broadway Ave.
(40.69952, -73.91106)"
Kings,Bushwick III Satellite Farmers' Market,"Irving & Putnam Aves.,Brooklyn",Irving Ave and Putnam Ave,Brooklyn,NY,11237,Travis Tench,6463939305,http://www.bushwickfarmersmarket.org,Thursday 12pm-5pm,June 6 - November 14,Y,40.6967,-73.9103,"Irving Ave and Putnam Ave
(40.6967, -73.9103)"
Kings,Bushwick II/Maria Hernandez Farmers' Market,"Knickerbocker Ave. & Starr St.Maria Hernandez Park, Brooklyn",Knickerbocker Ave and Starr St,Brooklyn,NY,11237,Travis Tench,6463939305,http://www.bushwickfarmersmarket.org,Saturday  9am-4pm,June 1 - November 16,Y,40.70281,-73.92539,"Knickerbocker Ave and Starr St
(40.70281, -73.92539)"
Kings,Bushwick II Satellite Farmers' Market,"Wilson Ave & Halsey St.,Irving Square Park, Brooklyn",Wilson Ave and Halsey St,Brooklyn,NY,11207,Travis Tench,6463939305,http://www.bushwickfarmersmarket.org,Saturday  11am-3pm,June 1 - November 16,Y,40.6915,-73.90955,"Wilson Ave and Halsey St
(40.6915, -73.90955)"
Kings,Bushwick I Satellite Farmers' Market,"Myrtle Ave. & Grove St.Near Make-the-Road NY, Brooklyn",Myrtle Ave and Grove St,Brooklyn,NY,11237,Travis Tench,6463939305,http://www.bushwickfarmersmarket.org,Friday 12 Noon-5 pm,June 7 - November 15,Y,40.69916,-73.91492,"Myrtle Ave and Grove St
(40.69916, -73.91492)"
Kings,Carroll Gardens Greenmarket,"Carroll St., btw Court & Smith Sts.",Carroll St and Court St,Brooklyn,NY,11231,Chelsea Whittaker,2127887476,http://www.grownyc.org,Sunday  8am - 3pm,Year-round,Y,40.68106,-73.99653,"Carroll St and Court St
(40.68106, -73.99653)"
Kings,Coney Island Farmers' Market,Surf Ave. & W. 16th St.,Surf Ave and West 16th St,Brooklyn,NY,11224,Judi Orlando,7182664653,http://www.astelladevelopment.org,Sunday  9am-3pm,June 16 - November 24,Y,40.57542,-73.98345,"Surf Ave and West 16th St
(40.57542, -73.98345)"
Kings,Cooper Park Farmers' Market,"Cooper Park,Maspeth Ave. & Olive St., Brooklyn",Cooper Park,Brooklyn,NY,11211,Doug Ornstein,9149234837,http://www.downtoearthmarkets.com,Sunday  11am-4pm,May 26 - November 24,Y,40.71607,-73.93868,"Cooper Park
(40.71607, -73.93868)"
Kings,Cortelyou Greenmarket,Cortelyou Rd. btw Argyle and Rugby Rds.,Cortelyou Rd and Argyle Rd,Brooklyn,NY,11226,Chelsea Whittaker,2127887476,http://www.grownyc.org,Sunday  8am - 4pm,Year-round,Y,40.64044,-73.96617,"Cortelyou Rd and Argyle Rd
(40.64044, -73.96617)"
Kings,Crown Heights Farmers' Market,"Hamilton Metz Park, Albany & Lefferts Aves., Brooklyn",Albany Ave and Lefferts Ave,Brooklyn,NY,11213,Nancie Katz,9177564202,http://www.seedsinthemiddle.org,Thursday  11am-7pm,June 6 - November 14,Y,40.66303,-73.94001,"Albany Ave and Lefferts Ave
(40.66303, -73.94001)"
Kings,Cypress Hills Youthmarket,"Fulton St., btwn Richmond & Logan Sts., Brooklyn",Fulton St and Logan St,Brooklyn,NY,11208,Ryan Morningstar,5089442083,,Friday  2pm-6pm,July 12 - November 22,Y,40.68203,-73.87787,"Fulton St and Logan St
(40.68203, -73.87787)"
Kings,East New York Farmers' Market I,"New Lots and Schenck Aves.,Brooklyn, NY 11207",New Lots Ave and Schenck Ave,Brooklyn,NY,11207,Janelle Nicol,7186497979,http://www.eastnewyorkfarms.org,Saturday  9am-3pm,June 29 - November 16,Y,40.6647,-73.88658,"New Lots Ave and Schenck Ave
(40.6647, -73.88658)"
Kings,East New York Farmers' Market II,"New Lots & Georgia Aves.,Brooklyn, NY 11207",New Lots Ave and Alabama Ave,Brooklyn,NY,11207,Janelle Nicol,7186497979,http://www.eastnewyorkfarms.org,Wed  3:30pm- 6:30pm,July 10 - October 30,Y,40.66077,-73.8955,"New Lots Ave and Alabama Ave
(40.66077, -73.8955)"
Kings,Fort Greene Park Greenmarket,"Washington Park,btw Dekalb Ave. & Willoughby St.",Washington Park and DeKalb Ave,Brooklyn,NY,11205,Chelsea Whittaker,2127887476,http://www.grownyc.org,Saturday  8am - 4pm,Year-round,Y,40.68961,-73.9731,"Washington Park and DeKalb Ave
(40.68961, -73.9731)"
Kings,Graham Avenue Farmers' Market,"Cook St.,to the east of Graham Ave.",Graham Ave and Cook St,Brooklyn,NY,11206,Betty Cooney,7183876643,http://www.grahamavebid.com,Sat  8am-5pm    Sun  8am-4pm,July 6 - October 27,Y,40.70235,-73.94238,"Graham Ave and Cook St
(40.70235, -73.94238)"
Kings,Grand Army Plaza Greenmarket,"Prospect Park entrance,Flatbush Ave. & Prospect Park West",Flatbush Ave and Grand Army Plaza,Brooklyn,NY,11238,Chelsea Whittaker,2127887476,http://www.grownyc.org,Saturday   8am - 4pm,Year-round,Y,40.67412,-73.9695,"Flatbush Ave and Grand Army Plaza
(40.67412, -73.9695)"
Kings,Greenpoint/ McCarren Park Greenmarket,Union Ave btw Driggs & N 12th St,McCarren Dog Park Run,Brooklyn,NY,11222,Chelsea Whittaker,2127887476,http://www.grownyc.org,Saturday  8am - 3pm,Year-round,Y,40.72004,-73.95291,"McCarren Dog Park Run
(40.72004, -73.95291)"
Kings,Greenpoint/ McGolrick Park Farmers' Market,"McGolrick Park,Russel St. off Nassau Ave., Brooklyn",McGolrick Park,Brooklyn,NY,11222,Doug Ornstein,9149234837,http://www.downtoearthmarkets.com,Sunday  11am-4pm,April 7 - December 29,Y,40.72444,-73.94336,"McGolrick Park
(40.72444, -73.94336)"
Kings,Harvest Home Coney Island Farmers' Market,"Ocean Parkway,btwn Ave. Z & Shore Rd.",Ocean Pkwy and Avenue Z,Brooklyn,NY,11235,Maritza Owens,2128283361,http://www.harvesthomefm.org,Friday  8am-4pm,June 14 - November 15,Y,40.58669,-73.96578,"Ocean Pkwy and Avenue Z
(40.58669, -73.96578)"
Kings,Harvest Home Lutheran Farmers' Market,"Lutheran Way, btwn 55th St. & Sunset Park, Brooklyn",Second Ave and 55th St,Brooklyn,NY,11220,Maritza Owens,2128283361,http://www.harvesthomefm.org,Thursday  8am-4pm,July 11 - November 14,Y,40.6463,-74.01984,"Second Ave and 55th St
(40.6463, -74.01984)"
Kings,Hattie Carthan After Church Farmers' Market,"49 Van Buren St.,Herban Farm & Bailey's Café",49 Van Buren St,Brooklyn,NY,11221,Yonnette Fleming,7186383566,http://www.hattiecarthancommunitymarket.com,Sunday  1pm-6pm,July 28 - November 17,Y,40.69024,-73.94359,"49 Van Buren St
(40.69024, -73.94359)"
Kings,Hattie Carthan Community Garden Farmers' Market,"363-365 Clifton Place,btwn Nostrand & Marcy Aves.",356 Clifton Pl,Brooklyn,NY,11216,Yonnette Fleming,7186383566,http://www.hattiecarthancommunitymarket.com,Saturday  9am-3pm,July 13 - November 16,Y,40.68902,-73.95016,"356 Clifton Pl
(40.68902, -73.95016)"
Kings,High School for Public Service Farmers' Market,"600 Kingston Ave., btw Rutland & Winthrop Aves.",600 Kingston Ave,Brooklyn,NY,11203,Steve Frillman,2125942155,http://www.hspsfarm.blogspot.com,Wed  2:30pm-6:30pm,June 26 - October 30,Y,40.65866,-73.94384,"600 Kingston Ave
(40.65866, -73.94384)"
Kings,Isabahlia Farmers' Market,"Ponell Street Garden410 Livonia Ave, Brooklyn",410 Livonia Ave,Brooklyn,NY,11212,Brenda Thompson-Duchene,7184983174,,Saturday  4pm-8pm,June 29 - November 2,Y,40.6635,-73.90234,"410 Livonia Ave
(40.6635, -73.90234)"
Kings,Kensington Youthmarket,"Ft. Hamilton Pkwy, btwn E. 4th & E. 5th Sts.corner outside the library",Fort Hamilton Pkwy and East 5th St,Brooklyn,NY,11218,Ryan Morningstar,5089442083,,Saturday  9am-3pm,July 13 - November 23,Y,40.64915,-73.97662,"Fort Hamilton Pkwy and East 5th St
(40.64915, -73.97662)"
Kings,Malcolm X Blvd. Community Farmers' Market,"Jackie Robinson Park,btwn Chauncy & Marion Sts.",Malcolm X Blvd and Marion St,Brooklyn,NY,11233,Rev. Robert Jackson,7183633085,http://www.brooklynrescuemission.org,Saturday  8am-3pm,July 13 - October 26,Y,40.67975,-73.92865,"Malcolm X Blvd and Marion St
(40.67975, -73.92865)"
Kings,Myrtle Avenue Farmers' Market,"Myrtle & North Portland Aves.,Brooklyn",177 Myrtle Ave,Brooklyn,NY,11201,Kassy Nystrom,7182301689,http://www.myrtleavenue.org,Wednesday  8am-3pm,July 3 - October 30,Y,40.69363,-73.98241,"177 Myrtle Ave
(40.69363, -73.98241)"
Kings,Park Slope Farmers' Market,"Fourth St., off Fifth Ave., near P.S. 51",Fourth Street and Fifth Avenue,Brooklyn,NY,11215,Doug Ornstein,9149234837,http://www.downtoearthmarkets.com,Sunday  10am-5pm,Year-round,Y,40.6722,-73.98379,"Fourth Street and Fifth Avenue
(40.6722, -73.98379)"
Kings,Project EATS Brownsville Farmers' Market,"Amboy Street Garden,corner of Amboy St. & Blake Ave.",Amboy St and Blake Ave,Brooklyn,NY,11212,Michelle Hodges,2126121528,http://www.projecteats.org,Tuesday  3pm-7pm,June 11 - November 26,Y,40.66507,-73.91348,"Amboy St and Blake Ave
(40.66507, -73.91348)"
Kings,Sunset Park Greenmarket,4th Ave. btw 59th & 60th Sts.,4th Ave and 60th St,Brooklyn,NY,11220,Chelsea Whittaker,2127887476,http://www.grownyc.org,Saturday  8am - 3pm,June 29 - November 16,Y,40.64081,-74.01836,"4th Ave and 60th St
(40.64081, -74.01836)"
Kings,Urban Oasis Farmers' Market,"Market Pavilion,Clarkson & Troy Aves., Brooklyn",681 Clarkson Ave,Brooklyn,NY,11203,Beatrix McLeod,7182217132,,Wed  2pm-5:30pm,June 12 - November 13,Y,40.65621,-73.93741,"681 Clarkson Ave
(40.65621, -73.93741)"
Kings,Walt Shamel Farmers' Market,"Walt Shamel Community Garden,1095 Dean St., BrooklynBetween Beford & Franklin Aves.",109 Dean Street,Brooklyn,NY,11217,Desiree Ortiz,7186854816,,Saturday  8am-3pm,June 29 - November 2,Y,40.68693,-73.98894,"109 Dean Street
(40.68693, -73.98894)"
Kings,Weeksville Heritage Center Farmers' Market,158 Buffalo Ave.,158 Buffalo Ave,Brooklyn,NY,11213,Yemi Amu,9173286842,,Saturday  9am-2pm,July 6 - November 2,Y,40.67398,-73.92531,"158 Buffalo Ave
(40.67398, -73.92531)"
Kings,Williamsburg Greenmarket,"Havemeyer St.,btw Broadway & Division St.",Havemeyer St and Division Ave,Brooklyn,NY,11211,Chelsea Whittaker,2127887476,http://www.grownyc.org,Thursday  8am - 4pm,July 11 - November 21,Y,40.70741,-73.95993,"Havemeyer St and Division Ave
(40.70741, -73.95993)"
Kings,Windsor Terrace PS 154 Greenmarket,11th Ave.btwn Sherman St. & Windsor Place,1625 11th Avenue,Brooklyn,NY,11215,Chelsea Whittaker,2127887476,http://www.grownyc.org,Sunday  9am - 3pm,May 5 - December 22,Y,40.65699,-73.97597,"1625 11th Avenue
(40.65699, -73.97597)"
Lewis,Lewis Co. General Hospital Farmers' Market,"7785 N. State St., near Children's Clinic back parking lot",7785 North State St,Lowville,NY,13367,Tina Schell,3153765087,,Thursday  12 Noon-4pm,June 13 - October 3,Y,43.79588,-75.4981,"7785 North State St
(43.79588, -75.4981)"
Lewis,Lowville Farmers' Market,"Lewis County Fairgrounds,5473 Bostwick St.",Bostwick St and Park Ave,Lowville,NY,13367,Doug Hanno,3153766380,,Saturday  8:30pm-2pm,June 1 - October 26,Y,43.79322,-75.49079,"Bostwick St and Park Ave
(43.79322, -75.49079)"
Lewis,Lyons Falls Farmers' Market,"Riverside Park,6904 Laura St.",6904 Laura St,Lyons Falls,NY,13368,Gary Mavis,3153485167,http://www.lyonsfallsalive.org,Tuesday  12 Noon-6pm,June 11 - October 1,Y,43.61391,-75.35499,"6904 Laura St
(43.61391, -75.35499)"
Livingston,Avon Farmers' Market,"Tops Market,270 E. Main St.",270 East Main St,Avon,NY,14414,Christine Quinlan,5852268118,http://www.avonfarmersmarket.org,Wednesday  3pm-6pm,June 12 - October 16,Y,42.91071,-77.73382,"270 East Main St
(42.91071, -77.73382)"
Livingston,Dansville Farmers' Market,"Airport Hanger parking lot, 50 Maple St.",50 Maple St,Dansville,NY,14437,Gary Roth,5853352963,,Friday  12 Noon-4pm,June 14 - October 11,Y,42.56598,-77.70836,"50 Maple St
(42.56598, -77.70836)"
Livingston,Geneseo Farmers' Market,"Center St.,Center & Main Sts.",Main St and Center St,Geneseo,NY,14454,Cate Concannon,5858804456,,Thursday  3pm-6:30pm,June 20 - October 17,Y,42.79624,-77.81679,"Main St and Center St
(42.79624, -77.81679)"
Livingston,Lima Presbyterian Church Farmers' Market,"Routes 5 & 20, corner of Route 15A",West Main St and Rochester St,Lima,NY,14485,Beverly Gillette,5855821737,,Tuesday  3pm-6pm,June 11 - October 29,Y,42.90496,-77.61175,"West Main St and Rochester St
(42.90496, -77.61175)"
Livingston,Mount Morris Village Farmers' Market,36 North Main St.,36 North Main St,Mount Morris,NY,14510,Lisa Torcello,5856584160,,Tuesday  12 Noon-4pm,June 11 - October 8,Y,42.73078,-77.87658,"36 North Main St
(42.73078, -77.87658)"
Madison,Canastota Farmers' Market,Hickory & Main Sts.,South Main St and West Hickory St,Canastota,NY,13032,Lois Brown,3156979291,,Saturday  9am-2pm,July 13 - October 19,Y,43.07476,-75.75539,"South Main St and West Hickory St
(43.07476, -75.75539)"
Madison,Cazenovia Farmers' Market,"Memorial Park, Albany St. (US Rt 20)(Winter - American Legion Post 88)",Albany St and Sullivan St,Cazenovia,NY,13035,Andy Shepard,3156559243,http://www.cazenoviachamber.com,Saturday  9am-4pm(Winter - 3rd Sat 10-2),Year-round,Y,42.92989,-75.8552,"Albany St and Sullivan St
(42.92989, -75.8552)"
Madison,Hamilton Farmers' Market,"Village Green, Broad & E. Broad Sts.",Broad St and Payne St,Hamilton,NY,13346,Kim Taranto,3158241111,,Saturday  8am-1pm,May 4 - November 2,Y,42.82684,-75.54436,"Broad St and Payne St
(42.82684, -75.54436)"
Madison,Oneida Farmers' Market,Oneida & Main Sts.,Oneida Street and Main Street,Oneida,NY,13421,Marty Winchell,3153634308,,Thursday  9am-2pm,June 6 - October 31,Y,43.09618,-75.65255,"Oneida Street and Main Street
(43.09618, -75.65255)"
Monroe,Affinity Orchard Place Farmers' Market,"Affinity Orchard Place,One Affinity Lane, Greece",One Affinity Lane,Greece,NY,14626,Marc Goldfischer,5852258150,,Sunday  11am-2pm,June 23 - November 3,Y,43.24028,-77.67841,"One Affinity Lane
(43.24028, -77.67841)"
Monroe,Brockport Farmers' Market,"Market St., off Main St.",Main St and Market St,Brockport,NY,14420,Charlene Veltz,5856373602,,Sunday  8am-1pm,June 16 - October 27,Y,43.21556,-77.9385,"Main St and Market St
(43.21556, -77.9385)"
Monroe,Fairport Farmers' Market,"58 S. Main St.,in parking lot behind Bank of America",58 South Main St,Fairport,NY,14450,Fritz May,5854213209,http://www.village.fairport.ny.us,Saturday  7am-12 Noon,May 4 - November 23,Y,43.09992,-77.44214,"58 South Main St
(43.09992, -77.44214)"
Monroe,Genesee Valley RMA Farmers' Market,"Administration Bldg. (south parking lot), 900 Jefferson Rd., Henrietta",900 Jefferson Rd.,Henrietta,NY,14623,"William Mulligan, Jr.",5854244600,,Friday  11am-5pm,May 31 - November 1,Y,43.09005,-77.61401,"900 Jefferson Rd.
(43.09005, -77.61401)"
Monroe,Greece Ridge Mall Farmers' Market,"Ridge & Long Pond Rds.,at Sears overflow Parking Lot",Long Pond Rd and Mitchell Rd,Greece,NY,14626,Melanie Fazio,5852251140,http://www.themallatgreeceridge.com,Thu/Sat  9am-3pm,May 9 - November 23,Y,43.20557,-77.69618,"Long Pond Rd and Mitchell Rd
(43.20557, -77.69618)"
Monroe,Hamlin Farmers' Market,"Town Hall lot,1658 Lake Rd.",1658 Lake Rd,Hamlin,NY,14464,Kathi Rickman,5859642421,,Sunday  9am-1pm,June - September,Y,43.2969,-77.91738,"1658 Lake Rd
(43.2969, -77.91738)"
Monroe,Irondequoit Farmers' Market,"Town Hall Lawn, 1280 Titus Ave.",1280 Titus Ave,Rochester,NY,14617,Dianne Schleifer,5853366085,http://www.irondequoit.org,Thursday  4pm-Dusk,May 30 - October 24,Y,43.21118,-77.58154,"1280 Titus Ave
(43.21118, -77.58154)"
Monroe,North Chili Farmers' Market,"Methodist Church, 2200 Westside Drive",2200 Westside Dr,North Chilli,NY,14514,James Miller,5852930841,,Saturday  8am-1pm,June 29 - November 2,Y,43.12646,-77.78968,"2200 Westside Dr
(43.12646, -77.78968)"
Monroe,Pittsford Farmers' Market,"Pittsford Colony Plaza,3400 Monroe Ave.",3400 Monroe Ave,Rochester,NY,14618,Cindy Christ,5857338104,,Tue/Sat  9am-1pm,May 7 - November 26,Y,43.10222,-77.53524,"3400 Monroe Ave
(43.10222, -77.53524)"
Monroe,Rochester/441  Ministries Market,"441 Parsells Ave.,",441 Paresells Ave,Rochester,NY,14609,Mitch Gruber,5853283380,http://www.foodlinkny.org,Wednesday  3pm-7pm,July 3 - September 11,Y,43.16583,-77.5666,"441 Paresells Ave
(43.16583, -77.5666)"
Monroe,Rochester/7th Day Adventist Market,"309 Jefferson Ave.,",309 Jefferson Ave,Rochester,NY,14611,Mitch Gruber,5853283380,http://www.foodlinkny.org,Thursday  3pm-6pm,July 11 - September 12,Y,43.14878,-77.62944,"309 Jefferson Ave
(43.14878, -77.62944)"
Monroe,Rochester/Aenon Baptist Market,"175 Genesee St.,",175 Genesee St,Rochester,NY,14611,Mitch Gruber,5853283380,http://www.foodlinkny.org,Tuesday  11am-3pm,July 9 - September 10,Y,43.1466,-77.63608,"175 Genesee St
(43.1466, -77.63608)"
Monroe,Rochester/Bridges to Wellness Market,"700 North St. (Gantt Comm Ctr),",700 North St,Rochester,NY,14605,Mitch Gruber,5853283380,http://www.foodlinkny.org,Tuesday  11am-2pm,July 2 - September 10,Y,43.17067,-77.59583,"700 North St
(43.17067, -77.59583)"
Monroe,Rochester/Brighton Farmers' Market,"Brighton High School lot,1150 Winton Rd. South(Winter - 220 Idlewood Rd.)",1150 Winton Rd South,Rochester,NY,14618,Sue Gardner-Smith,5852698918,http://www.brightonfarmersmarket.org,Sunday5/26-10/27 9am-1pm11/4-5/18 1pm-4pm,Year-round,Y,43.12203,-77.56811,"1150 Winton Rd South
(43.12203, -77.56811)"
Monroe,Rochester/Cathedral Community Market,"296 Flower City Park,",296 Flower City Park,Rochester,NY,14615,Mitch Gruber,5853283380,http://www.foodlinkny.org,Wednesday  2:30pm-6:30pm,July 3 - September 11,Y,43.19312,-77.63275,"296 Flower City Park
(43.19312, -77.63275)"
Monroe,Rochester/Community Place Market,"500 Carter St.,",500 Carter St,Rochester,NY,14621,Mitch Gruber,5853283380,http://www.foodlinkny.org,Tuesday  2pm-6pm,July 9 - September 10,Y,43.18631,-77.59177,"500 Carter St
(43.18631, -77.59177)"
Monroe,Rochester/Conkey Corner Market,"Conkey Corner Park, Clifford & Conkey",Clifford Ave and Conkey Ave,Rochester,NY,14621,Mitch Gruber,5853283380,http://www.foodlinkny.org,Sunday  12 Noon-3pm,July 7 - September 15,Y,43.17472,-77.6196,"Clifford Ave and Conkey Ave
(43.17472, -77.6196)"
Monroe,Rochester/Deaf Club Market,"1564 Lyell Ave.,",1564 Lyell Ave,Rochester,NY,14606,Mitch Gruber,5853283380,http://www.foodlinkny.org,Saturday  10am-1pm,July 6 - September 14,Y,43.165,-77.66715,"1564 Lyell Ave
(43.165, -77.66715)"
Monroe,Rochester/Freedom Market,"359 Webster Ave.,",359 Webster Ave,Rochester,NY,14609,Mitch Gruber,5853283380,http://www.foodlinkny.org,Saturday  12 Noon-3pm,July 6 - September 14,Y,43.16842,-77.57483,"359 Webster Ave
(43.16842, -77.57483)"
Monroe,Rochester/JOSANA Market,"677 Jay Street (Jay & Child Pocket Park),",676 Jay St,Rochester,NY,14611,Mitch Gruber,5853283380,http://www.foodlinkny.org,Thursday  4pm-7pm,July 11 - September 12,Y,43.15974,-77.63867,"676 Jay St
(43.15974, -77.63867)"
Monroe,Rochester Public Market,280 N. Union St.Off East Main St.,280 North Union St.,Rochester,NY,14609,Cindy De Coste,5854286907,http://www.cityofrochester.gov/publicmarket,Tue/Thu  6am-1pm    Saturday 5am - 3pm,Year-round,Y,43.1657,-77.59016,"280 North Union St.
(43.1657, -77.59016)"
Monroe,Rochester/South Wedge Farmers' Market,"100 Alexander St. lot, at S. Clinton Ave.",100 Alexander St,Rochester,NY,14620,Sue Gardner-Smith,5852698918,http://www.brightonfarmersmarket.org,Thursday  4pm-7pm,June 6 - October 17,Y,43.14598,-77.60243,"100 Alexander St
(43.14598, -77.60243)"
Monroe,Rochester/St. Mark & St. John Episcopal Market,"1245 Culver Road,",1245 Culver Rd,Rochester,NY,14609,Mitch Gruber,5853283380,http://www.foodlinkny.org,Saturday  9:30am-1pm,July 6 - September 14,Y,43.16807,-77.56219,"1245 Culver Rd
(43.16807, -77.56219)"
Monroe,Rochester/Washington Square Farmers' Market,"Washington Square Park,181 S. Clinton Ave.",181 South Clinton Ave,Rochester,NY,14604,Mitch Gruber,5853283380,http://www.foodlinkny.org,Wednesday  11am-2pm,June 26 - September 4,Y,43.15352,-77.60533,"181 South Clinton Ave
(43.15352, -77.60533)"
Monroe,Rochester/Westside Farmers' Market,"St. Monica's Church parking lot,831 Genesee St.",831 Genesee St,Rochester,NY,14611,Jackie Farrell,5854368999,http://www.westsidemarketrochester.com,Tuesday  4pm-7:30pm,June 11 - October 15,Y,43.13373,-77.636,"831 Genesee St
(43.13373, -77.636)"
Monroe,Rochester/Women's Coffee Connection Market,"2271 East Main St.,",2271 East Main St,Rochester,NY,14609,Mitch Gruber,5853283380,http://www.foodlinkny.org,Tuesday  3pm-7pm,July 9 - September 10,Y,43.15884,-77.55016,"2271 East Main St
(43.15884, -77.55016)"
Monroe,Webster Joe Obbie Farmers' Market,"Webster Towne Center,Holt & Ridge Rd.",Holt Road and Ridge Road,Webster,NY,14580,Fedele Noto,3155898703,,Wednesday  3pm-7pm    Saturday  8am-12:30pm,June 8 - November 2,Y,43.21035,-77.44665,"Holt Road and Ridge Road
(43.21035, -77.44665)"
Montgomery,Amsterdam Downtown Farmers' Market,"Inman Senior Center parking lot,53 Guy Park Ave., near Roosevelt Apts.",53 Guy Park Avenue,Amsterdam,NY,12010,Anne Marie Johnson,5188636104,http://www.fultonmontgomeryfarmersmarket.org,Friday  11am-1pm,July 12 - October 11,Y,42.94083,-74.1934,"53 Guy Park Avenue
(42.94083, -74.1934)"
Montgomery,Amsterdam Sanford Farm Farmers' Market,"Sanford Stud Farm,Rt. 30 N btwn Walmart & Walgreens",110 Town Square Dr,Amsterdam,NY,12010,Anne Marie Johnson,5188636104,http://www.fultonmontgomeryfarmersmarket.org,Wednesday  3pm-6pm,May 15 - October 16,Y,42.96078,-74.18542,"110 Town Square Dr
(42.96078, -74.18542)"
Montgomery,Canajoharie Farmers' Market,"Arkell Museum lot,2 Erie Blvd.",2 Erie Blvd,Canajoharie,NY,13317,Dolores Jacksland,5186734434,http://www.canajohariefarmersmarket.com,Saturday  10am-1pm,June 1 - October 26,Y,42.90736,-74.572,"2 Erie Blvd
(42.90736, -74.572)"
Montgomery,Fort Plain Farmers' Market,"Parking lot on 12 Willet St.Fort Plain, NY 13339",12 Willet Street,Fort Plain,NY,13339,Annette Bayes,5189934271,,Thursday  2pm-5pm,May 30 - November 29,Y,42.93145,-74.62156,"12 Willet Street
(42.93145, -74.62156)"
Nassau,Belmont Raceway Farmers' Market,"Belmont Racetrack,2150 Hempstead Turnpike, Elmont",2150 Hempstead Turnpike,Elmont,NY,11003,Bernadette Martin,6316785227,http://www.kennedyplazafarmersmarket.com,Sat/Sun  10am-4pm(Off the month of Aug),May - November,Y,40.71475,-73.71797,"2150 Hempstead Turnpike
(40.71475, -73.71797)"
Nassau,Freeport Community Farmers' Market,"Freeport Recreation Center Parking Lot,130 East Merrick Rd.",130 East Merrick Rd,Freeport,NY,11520,Barbara Jordan,5163783415,,Saturday  11am-4pm,July 13 - October 26,Y,40.65447,-73.57496,"130 East Merrick Rd
(40.65447, -73.57496)"
Nassau,Garden City Farmers' Market,"101 Co. Seat Dr., off Old Country RdSupreme Ct. Bldg. pkg lot",County Seat Dr and Supreme Court Dr,Garden City,NY,11530,Ethel Terry,6313233653,http://www.longislandgrowersmarket.com,Tuesday  7am-1pm,June 4 - November 26,Y,40.73609,-73.63505,"County Seat Dr and Supreme Court Dr
(40.73609, -73.63505)"
Nassau,Great Neck Community Farmers' Market,125 Community Drive (parking lot),125 Community Drive,Great Neck,NY,11021,Lisa Burch,5164652535,http://www.northshorelij.com,Sunday  10am-2pm,July 14 - November 3,Y,40.78414,-73.70454,"125 Community Drive
(40.78414, -73.70454)"
Nassau,Kennedy Plaza Farmers' Market,One West Chester St.Corner of National Blvd. & Park Ave.,1 West Chester St,Long Beach,NY,11561,Bernadette Martin,6316785227,http://www.kennedyplazafarmersmarket.com,Wed  10am-6pmSaturday 9am-2pm,May 1 - November 20,Y,40.58941,-73.66594,"1 West Chester St
(40.58941, -73.66594)"
Nassau,Kings Park Farmers' Market,"Route 25A, Main St. Municipal Lot",1 E. Main St.,Kings Park,NY,11754,Bernadette Martin,6316785227,http://www.kennedyplazafarmersmarket.com,Sunday  9am-2pm,May 5 - November 17,Y,40.88423,-73.25242,"1 E. Main St.
(40.88423, -73.25242)"
Nassau,Locust Valley Farmers' Market,115 Forest Ave.across from Post Office,115 Forest Ave,Locust Valley,NY,11560,Ethel Terry,6313233653,http://www.longislandgrowersmarket.com,Saturday  8am-1pm,June 1 - November 16,Y,40.87555,-73.59994,"115 Forest Ave
(40.87555, -73.59994)"
Nassau,New Cassel Farmers' Market,"First Baptist Church parking lot,212 Garden St., Westbury",211 Garden St,Westbury,NY,11590,Traci Caines,5169979399,,Saturday  11am-4pm,July 13 - November 16,Y,40.76179,-73.56789,"211 Garden St
(40.76179, -73.56789)"
Nassau,New Hyde Park Farmers' Market,"Municipal parking lot,across from New Hyde Park Village Hall",Jericho Turnpike and New Hyde Park Rd,New Hyde Park,NY,11040,Jaime Greci,5162977997,http://www.winterfarmersmarketlongisland.com,Saturday  8am-1pm,June 1 - November 23,Y,40.7337,-73.68008,"Jericho Turnpike and New Hyde Park Rd
(40.7337, -73.68008)"
Nassau,Port Washington Organic Farmers' Market,"Port WashingtonTown Dock, Main St.",Main St and Covert St,Port Washington,NY,11050,Patti Wood,5168830887,,Saturday  8am-12 Noon,June 8 - October 26,Y,40.83153,-73.7019,"Main St and Covert St
(40.83153, -73.7019)"
Nassau,Rockville Centre Farmers' Market,Sunrise Hgwy & Longbeach Rd.,Sunrise Hwy and Long Beach Rd,Rockville Centre,NY,11570,Ethel Terry,6313233653,http://www.longislandgrowersmarket.com,Sunday  7am-12 Noon,May 26 - November 24,Y,40.65712,-73.6321,"Sunrise Hwy and Long Beach Rd
(40.65712, -73.6321)"
Nassau,Roosevelt Community Farmers' Market,"380 Nassau Rd., Family Health Clinic parking lot",380 Nassau Rd,Roosevelt,NY,11575,Clara Gillens,5163788132,http://www.rcrgli.org,Sunday  11am-4pm,July 7 - November 3,Y,40.68185,-73.59092,"380 Nassau Rd
(40.68185, -73.59092)"
Nassau,Roslyn-North Hills Farmers' Market,"Christopher Morley Park,500 Searing Town Rd.",500 Searingtown Rd,Roslyn Heights,NY,11577,Ethel Terry,6313233653,http://www.longislandgrowersmarket.com,Wednesday  7am-1pm,June 5 - November 27,Y,40.78188,-73.66277,"500 Searingtown Rd
(40.78188, -73.66277)"
Nassau,Seaford Farmers' Market,"Seaford Railroad Station,East End Parking Lot, Sunrise Highway",Seaford Railroad Station,Seaford,NY,11783,Ethel Terry,6313233653,http://www.longislandgrowersmarket.com,Saturday  7am-12 Noon,May 25 - November 23,Y,40.67572,-73.48657,"Seaford Railroad Station
(40.67572, -73.48657)"
New York,175th St. Greenmarket,175th St. Btw Wadsworth & Broadway,West 175th St and Broadway,New York,NY,10033,Chelsea Whittaker,2127887476,http://www.grownyc.org,Thursday  8am - 5pm,June 27 - November 21,Y,40.84622,-73.93847,"West 175th St and Broadway
(40.84622, -73.93847)"
New York,42nd St. Greenmarket,"W. 42nd St. btwn 11th & 12th Aves.,Manhattan",42nd St and 11th Ave,Manhattan,NY,10036,Chelsea Whittaker,2127887476,http://www.grownyc.org,Wednesday  8am-6pm,July 10 - November 27,Y,40.76085,-73.99832,"42nd St and 11th Ave
(40.76085, -73.99832)"
New York,57th St. Greenmarket,"Ninth Ave., Balsley ParkBtw 56th & 57th Sts.",West 57th St and Ninth Ave,New York,NY,10019,Chelsea Whittaker,2127887476,http://www.grownyc.org,Sat 4/20-12/21 8a-5pWed 5/1-12/18 8a-5p,April 20 - December 21,Y,40.76792,-73.98572,"West 57th St and Ninth Ave
(40.76792, -73.98572)"
New York,79th St. Greenmarket,"Columbus Ave., W. 78th & 81st Sts.",West 79th St and Columbus Ave,New York,NY,10024,Chelsea Whittaker,2127887476,http://www.grownyc.org,Sunday  8am - 5pm,Year-round,Y,40.78195,-73.97548,"West 79th St and Columbus Ave
(40.78195, -73.97548)"
New York,82 St./St. Stephens Greenmarket,"82nd St., btw First & York Aves.",East 82nd St and First Ave,New York,NY,10028,Chelsea Whittaker,2127887476,http://www.grownyc.org,Saturday  9am - 2:30pm,Year-round,Y,40.7743,-73.95126,"East 82nd St and First Ave
(40.7743, -73.95126)"
New York,92 St. Greenmarket,"First Ave.,btw 92nd & 93rd Sts.",East 92nd St and First Ave,New York,NY,10128,Chelsea Whittaker,2127887476,http://www.grownyc.org,Sunday  9am - 4pm,June 23 - November 24,Y,40.78071,-73.94658,"East 92nd St and First Ave
(40.78071, -73.94658)"
New York,97th Street Greenmarket,"97th St.,btw Amsterdam & Columbus Aves.",West 97th St and Columbus Ave,New York,NY,10025,Chelsea Whittaker,2127887476,http://www.grownyc.org,Friday  8am - 2pm,Year-round,Y,40.79356,-73.96701,"West 97th St and Columbus Ave
(40.79356, -73.96701)"
New York,Abingdon Square Greenmarket,West 12th St and 8th Ave,Hudson St and 8th Ave,New York,NY,10014,Chelsea Whittaker,2127887476,http://www.grownyc.org,Saturday  8am - 2pm,Year-round,Y,40.73691,-74.00557,"Hudson St and 8th Ave
(40.73691, -74.00557)"
New York,Bowling Green Greenmarket,"Broadway, at Battery Place",Broadway and Bowling Green,New York,NY,10004,Chelsea Whittaker,2127887476,http://www.grownyc.org,Tue/Thu  8am - 5pm,Year-round,Y,40.70463,-74.01415,"Broadway and Bowling Green
(40.70463, -74.01415)"
New York,Broadway French Farmers' Market,"Broadway,btwn 35th & 36th Sts., Manhattan",Broadway and 35th Street,Manhattan,NY,10018,Johanna Safar,9143181067,,Tue 11:30am-6:30pmFri 11:30am-6:30pm,May 3 - November 26,Y,40.75069,-73.98783,"Broadway and 35th Street
(40.75069, -73.98783)"
New York,City Hall Park Greenmarket,"Broadway, at Chambers St.",Broadway and Chambers St,New York,NY,10007,Chelsea Whittaker,2127887476,http://www.grownyc.org,Tue/Fri  8am - 4pm,March 12 - December 24,Y,40.71416,-74.00632,"Broadway and Chambers St
(40.71416, -74.00632)"
New York,Columbia Greenmarket,"Broadway, btw 114th & 116th Sts.",Broadway and West 115th St,New York,NY,10027,Chelsea Whittaker,2127887476,http://www.grownyc.org,Thu/Sun  8am - 5pm,Year-round,Y,40.80738,-73.96447,"Broadway and West 115th St
(40.80738, -73.96447)"
New York,Dag Hammarskjold Plaza Greenmarket,"47th St.,btw 2nd & First Aves.",East 47th St and Second Ave,New York,NY,10017,Chelsea Whittaker,2127887476,http://www.grownyc.org,Wednesday  8am-4pm,Year-round,Y,40.75298,-73.96989,"East 47th St and Second Ave
(40.75298, -73.96989)"
New York,Fort Washington Greenmarket,Fort Washington Ave. & 168th St.,Fort Washington Ave and West 168th St,New York,NY,10032,Chelsea Whittaker,2127887476,http://www.grownyc.org,Tuesday  8am - 4pm,June 4 - November 26,Y,40.84217,-73.94227,"Fort Washington Ave and West 168th St
(40.84217, -73.94227)"
New York,Grass Roots Farmers' Market,"Jackie Robinson Park, 145th St. & Edgecombe",West 145th St and Edgecombe Ave,New York,NY,10030,Fred Williams,9175158046,,Sat/Tue  9am-4pm,July 13 - November 26,Y,40.82363,-73.94383,"West 145th St and Edgecombe Ave
(40.82363, -73.94383)"
New York,Hamilton Heights Green Farmers Market,"Amsterdam Ave. btwn W. 143rd &  W. 144th Sts.,Manhattan",143rd Street and Amsterdam Ave,Manhattan,NY,10031,Khary Lazarre-White,2122837044,http://www.brotherhood-sistersol.org,Wednesday  11:30am-4:30pm,June 19 - November 27,Y,40.82395,-73.94853,"143rd Street and Amsterdam Ave
(40.82395, -73.94853)"
New York,Harlem State Office Building Farmers' Market,"163 W 125 St,Adam Clayton Powell Jr. State Office Bldg",163 West 125 Street,New York,NY,10027,Tupacamaru Tiwoni,6463517611,http://www.125thstreetfarmersmarket.com,Tuesday  10am-5pm   Friday 3pm - 8pm,June 11 - November 29,Y,40.80849,-73.94715,"163 West 125 Street
(40.80849, -73.94715)"
New York,Harvest Home East Harlem Farmers' Market,E. 104th St. and Third Ave.,East 104th St and Third Ave,New York,NY,10029,Maritza Owens,2128283361,http://www.harvesthomefm.org,Thursday  8am-4pm,July 11 - November 14,Y,40.79024,-73.94564,"East 104th St and Third Ave
(40.79024, -73.94564)"
New York,Harvest Home Harlem Hospital Farmers' Market,W. 137th St. & Lennox Ave. (Malcolm X. Blvd.)Manhattan,137th Street and Lennox Avenue,New York,NY,10037,Maritza Owens,2128283361,http://www.harvesthomefm.org,Friday  8am-5:30pm,July 5 - November 15,Y,40.81539,-73.93985,"137th Street and Lennox Avenue
(40.81539, -73.93985)"
New York,Harvest Home Metropolitan Farmers' Market,99th St. on 3rd Ave.,East 99th St and Third Ave,New York,NY,10029,Maritza Owens,2128283361,http://www.harvesthomefm.org,Friday  8am-4pm,July 5 - November 15,Y,40.78713,-73.94792,"East 99th St and Third Ave
(40.78713, -73.94792)"
New York,Harvest Home Mt. Morris Park Farmers' Market,"Marcus Garvey Park, Lenox Ave between W. 117th and W. 118th Street",East 124th St and Fifth Ave,New York,NY,10027,Maritza Owens,2128283361,http://www.harvesthomefm.org,Saturday  8am-4pm,June 15 - November 16,Y,40.80575,-73.94275,"East 124th St and Fifth Ave
(40.80575, -73.94275)"
New York,Harvest Home West Harlem Farmers' Market,137th St. and Broadway,137th St and Broadway,New York,NY,10031,Maritza Owens,2128283361,http://www.harvesthomefm.org,Tuesday  8am-4pm,July 9 - November 19,Y,40.82136,-73.95404,"137th St and Broadway
(40.82136, -73.95404)"
New York,Herban Farmers' Market - Mt. Morris Park,"Marcus Garvey Park,Mt. Morris Park btwn 122nd & 123rd Sts.btwn 122nd & 123rd Sts., Harlem",18 Mt Morris Park W,New York,NY,10027,Tupacamaru Tiwoni,6463517611,http://www.125thstreetfarmersmarket.com,Saturday  8am-3pm,June 22 - December 28,Y,40.80502,-73.9449,"18 Mt Morris Park W
(40.80502, -73.9449)"
New York,Inwood Park Greenmarket,"Isham St., btw Seaman & Cooper Sts.",Isham St and Seaman St,New York,NY,10034,Chelsea Whittaker,2127887476,http://www.grownyc.org,Saturday  8am - 3pm,Year-round,Y,40.86988,-73.9209,"Isham St and Seaman St
(40.86988, -73.9209)"
New York,Lower East Side Youthmarket,"Grand Ave., along Abrons Arts Ctrbtwn Pitt St. & Abraham Place",Grand St and Pitt St,New York,NY,10002,Ryan Morningstar,5089442083,,Thursday  3pm - 7pm,July 11 - November 21,Y,40.71523,-73.9843,"Grand St and Pitt St
(40.71523, -73.9843)"
New York,Morningside Park Farmers' Market,W. 110th St. and Manhattan Ave.,West 110th St and Manhattan Ave,New York,NY,10025,Doug Ornstein,9149234837,http://www.downtoearthmarkets.com,Saturday  9am-5pm,May 25 - December 7,Y,40.80116,-73.95965,"West 110th St and Manhattan Ave
(40.80116, -73.95965)"
New York,Mount Sinai Hospital Greenmarket,"99th St., east of Madison Ave.Btw Madison & Park Aves.",East 99th St and Madison Ave,New York,NY,10029,Chelsea Whittaker,2127887476,http://www.grownyc.org,Wednesday  8am-5pm,June 26 - November 27,Y,40.78918,-73.95276,"East 99th St and Madison Ave
(40.78918, -73.95276)"
New York,PATH Greenmarket,"West Broadway,btwn Barclay & Park Place",Broadway and Park Pl,New York,NY,10007,Chelsea Whittaker,2127887476,http://www.grownyc.org,Tuesday  8am - 6pm,Year-round,Y,40.7126,-74.00764,"Broadway and Park Pl
(40.7126, -74.00764)"
New York,Port Authority Bus Terminal Greenmarket,"Inside North Bus Terminal,8th Ave. & W. 42nd St.",8th Ave and West 42nd St,New York,NY,10036,Chelsea Whittaker,2127887476,http://www.grownyc.org,Thursday  8am - 5pm,Year-round,Y,40.75723,-73.98979,"8th Ave and West 42nd St
(40.75723, -73.98979)"
New York,Project EATS Frederick Douglas Houses Farmers' Market,"Frederick Douglass Houses,830 Amsterdam Ave., W. 101 St. at Tennis Ct.Manhattan",830 Amsterdam Ave,New York,NY,10025,Michelle Hodges,2126121528,http://www.projecteats.org,Saturday  8am-12 Noon,June 8 - November 23,Y,40.79703,-73.96822,"830 Amsterdam Ave
(40.79703, -73.96822)"
New York,Rockefeller Center Greenmarket,"Rockefeller Plaza, at 50th",Rockefeller Plaza and West 50th St,New York,NY,10112,Chelsea Whittaker,2127887476,http://www.grownyc.org,Wed/Thu/Fri  8am-5pm,July 24 - August 30,Y,40.75907,-73.97846,"Rockefeller Plaza and West 50th St
(40.75907, -73.97846)"
New York,Saint Mark's Church Greenmarket,"E. 10th St., at 2nd Ave.,in Abe Lebewohl Park",East 10th St and Second Ave,New York,NY,10003,Chelsea Whittaker,2127887476,http://www.grownyc.org,Tuesday  8am - 7pm,June 4 - November 26,Y,40.72977,-73.98681,"East 10th St and Second Ave
(40.72977, -73.98681)"
New York,SoHA Square Farmers' Market,"NW Corner, W. 117th St. & Frederick Douglass Blvd., Manhattan",W 117th and Frederick Douglass Blvd,Manhattan,NY,10026,Tiffany Simone,6312137642,http://www.facebook.com/sohasquare,Thursday  11am-7pm,June 6 - December 19,Y,40.80511,-73.95487,"W 117th and Frederick Douglass Blvd
(40.80511, -73.95487)"
New York,Staten Island Ferry Whitehall Greenmarket,"4 South St., inside Ferry Terminal Bldg.",4 South St,New York,NY,10005,Chelsea Whittaker,2127887476,http://www.grownyc.org,Tue/Fri  8am - 7pm,Year-round,Y,40.70155,-74.01213,"4 South St
(40.70155, -74.01213)"
New York,Stuyvesant Town Greenmarket,"Southend Stuyvesant Town Oval,near 14th St. loop, 1st Ave. & Ave. A",1 Stuyvesant Oval,New York,NY,10009,Chelsea Whittaker,2127887476,http://www.grownyc.org,Sunday  9:30am-4pm,April 21 - December 22,Y,40.73075,-73.978,"1 Stuyvesant Oval
(40.73075, -73.978)"
New York,Tompkins Square Greenmarket,Tompkins Square ParkAve. A & E. 7th St.,Avenue A and East 7th St,New York,NY,10009,Chelsea Whittaker,2127887476,http://www.grownyc.org,Sunday  9am - 6pm,Year-round,Y,40.72606,-73.98354,"Avenue A and East 7th St
(40.72606, -73.98354)"
New York,Tribeca Greenmarket,"Greenwich St.,btwn Chambers & Duane Sts.",Greenwich St and Chambers St,New York,NY,10007,Chelsea Whittaker,2127887476,http://www.grownyc.org,Wed/Sat  8am-3pm,Year-round,Y,40.71629,-74.01095,"Greenwich St and Chambers St
(40.71629, -74.01095)"
New York,Tucker Square Greenmarket,"Columbus Ave., at 66th Street",Columbus and West 66th St,New York,NY,10023,Chelsea Whittaker,2127887476,http://www.grownyc.org,Thu/Sat  8am - 5pm,Year-round,Y,40.77361,-73.98158,"Columbus and West 66th St
(40.77361, -73.98158)"
New York,Union Square Greenmarket,Broadway & 17th St. to 14th St.W and N sides of Union Square Park,Broadway and West 17th St,New York,NY,10003,Chelsea Whittaker,2127887476,http://www.grownyc.org,M/W/F/Sat  8am - 6pm,Year-round,Y,40.73712,-73.99029,"Broadway and West 17th St
(40.73712, -73.99029)"
Niagara,Barker Farmers' Market,"Village Park, Main St. & Quaker Rd. (Rt. 148N)",Main St and Quaker Rd,Barker,NY,14012,Herb Meyer,7167953777,,Thursday  5pm-7:30pm,June 20 - August 29,Y,43.33012,-78.55481,"Main St and Quaker Rd
(43.33012, -78.55481)"
Niagara,Lockport Farmers' Market,"Walnut St. parking lot, South LotWest of Pine St.",Walnut St and Pine St,Lockport,NY,14094,Richelle Pasceri,7164396676,http://www.elockport.com,Daily  9am - 4pm,April 1 - November 30,Y,43.16883,-78.69199,"Walnut St and Pine St
(43.16883, -78.69199)"
Niagara,Middleport Community Farmers' Market,"Wilson Farms Store lot, 81 Rochester Rd.",79 Telegraph Rd,Middleport,NY,14105,Stacey McAvoy,7167357425,,Wednesday  2pm-6pm,June 12 - October 30,Y,43.20482,-78.4838,"79 Telegraph Rd
(43.20482, -78.4838)"
Niagara,Niagara Falls City Market,"Pine Ave., Market Squarebtwn 18th & 19th Sts.",Pine Ave and 18th St,Niagara Falls,NY,14301,Victor Muto,7167540798,,Mon/Wed/Fri  9am-5pm,Year-round,Y,43.0951,-79.04017,"Pine Ave and 18th St
(43.0951, -79.04017)"
Niagara,North Tonawanda City Farmers' Market,"Robinson Rd, at Payne Ave.",Payne Ave and Robinson St,North Tonawanda,NY,14120,Robert Ortt,7166958540,,Tue/Thu/Sat  7am-1pm,Year-round,Y,43.03357,-78.8711,"Payne Ave and Robinson St
(43.03357, -78.8711)"
Oneida,Boonville Farmers' Market,"222 Schuyler St.,Boonville",222 Schuyler St,Boonville,NY,13309,Kelly Ulrich,3153359851,http://www.boonvillefarmersmarket.com,Thursday 12 Noon-6pm,June 20 - October 10,Y,43.48312,-75.34464,"222 Schuyler St
(43.48312, -75.34464)"
Oneida,City of Sherrill Farmers' Market,"377 Sherrill Rd, Next to the Gazebo",Sherrill Rd and Park St,Sherrill,NY,13461,Sara Getman,3153636525,http://www.sherrillny.org/farmersmarket,Tuesday  12 Noon-5pm,June 11 - October 8,Y,43.0725,-75.5984,"Sherrill Rd and Park St
(43.0725, -75.5984)"
Oneida,Clinton Farmers' Market,"Village Green,West Park Row",College St and West Park Row,Clinton,NY,13323,Ferris Betrus Jr.,3158531335,http://www.clintonnychamber.org,Thursday  10am-4pm,June 6 - October 10,Y,43.04823,-75.37883,"College St and West Park Row
(43.04823, -75.37883)"
Oneida,Oneida County Public Market,"Downtown Utica, 321 Main St.(Indoor - Historic Union Station)",1st St. and Main St.,Utica,NY,13501,Elizabeth Irons,3157983639,http://www.oneidacountymarket.com,"Saturday  9am-2pm(Nov - Apr, alternate weeks)",Year-round,Y,43.10364,-75.223,"1st St. and Main St.
(43.10364, -75.223)"
Oneida,Rome Vendors Market,"101 W. Dominick St.,Berkshire Bank parking lot",Erie Blvd and North James St,Rome,NY,13440,Judith Wagner,3153395182,,Friday  9am-5pm,May 3 - November 1,Y,43.2099,-75.45824,"Erie Blvd and North James St
(43.2099, -75.45824)"
Oneida,Trenton Farmers' Market,"Village Green,Holland Patent",Main St and Church St,Holland Patent,NY,13354,Nick Keblish,3158654423,,Saturday  9am-1pm,June 15 - October 12,Y,43.24132,-75.25754,"Main St and Church St
(43.24132, -75.25754)"
Oneida,Utica Farmers' Market,"Chancellor Park, Bleecker Street",Bleeker St and 1st St,Utica,NY,13501,David Short,3157381341,,Wednesday  8am-5pm,TBA,Y,43.10043,-75.22483,"Bleeker St and 1st St
(43.10043, -75.22483)"
Oneida,Village of Waterville Farmers' Market,Village GreenWaterville,Village Green,Waterville,NY,13480,Debra Atkinson,3158414221,,Wednesday  11am-6pm,June 5 - October 30,Y,42.91417,-75.37875,"Village Green
(42.91417, -75.37875)"
Oneida,Westmoreland Farmers' Market,"Seymour's Diner,Route 233",4834 State Route 233,Westmoreland,NY,13490,Denise & Bernie Szarek,3158535901,,Sunday  10am-2pm,May 19 - October 6,Y,43.09965,-75.40026,"4834 State Route 233
(43.09965, -75.40026)"
Onondaga,Camillus Farmers' Market,"Municipal Bldg. lawn, 4600 W. Genesee St.",4600 West Genesee St,Camillus,NY,13219,Sandra Shoff,3154881234,http://www.townofcamillus.com,Friday  8am - 2pm,May 10 - October 25,Y,43.04568,-76.24872,"4600 West Genesee St
(43.04568, -76.24872)"
Onondaga,Downtown Syracuse Farmers' Market,Clinton Square,Clinton St and Water St,Syracuse,NY,13202,Charles McFadden,3154228284,http://www.downtownsyracuse.com,Tuesday  7am-4pm,June 11 - October 8,Y,43.05054,-76.15354,"Clinton St and Water St
(43.05054, -76.15354)"
Onondaga,Liverpool Bayberry Plaza Farmers' Market,"Kinney lot, 7608 Oswego Rd.",Blackberry Rd and Oswego Rd,Liverpool,NY,13090,Sheila Perrotti,3156521463,,Wednesday  8am-4pm,June 5 - October 30,Y,43.14036,-76.22751,"Blackberry Rd and Oswego Rd
(43.14036, -76.22751)"
Onondaga,New York State Fair Farmers' Market,NYS Fairgrounds,581 State Fair Blvd,Syracuse,NY,13209,Diane Eggert,,,Daily 8am - 8pm,August 22 - Labor Day,Y,43.07441,-76.22467,"581 State Fair Blvd
(43.07441, -76.22467)"
Onondaga,Skaneateles Farmers' Market,One East Austin StreetAustin Park Pavilion,Austin St and Jordan St,Skaneateles,NY,13152,Sue Murphy,3157279320,,Thu 5/23-10/10 3:30-6:30Sat 6/15-10/12 9-1,May 23 - October 12,Y,42.95085,-76.43092,"Austin St and Jordan St
(42.95085, -76.43092)"
Onondaga,Syracuse/Central New York Regional Market,"2100 Park St., Syracuse",Park St and Farmers Market Pl,Syracuse,NY,13208,Eugene Elemos,3154228647,,"Sat/Sun  7am-2pm  Thu, May-Oct,  7-2",Year-round,Y,43.07269,-76.16835,"Park St and Farmers Market Pl
(43.07269, -76.16835)"
Onondaga,Syracuse Eastside Neighborhood Market,Westcott Community Ctr826 Euclid Ave,826 Euclid Ave,Syracuse,NY,13210,Jennifer Walton,3154788634,,Wed 2pm - 6pm,June 12 - Oct 30,Y,43.03662,-76.1192,"826 Euclid Ave
(43.03662, -76.1192)"
Onondaga,Syracuse Farm Fresh Mobile Market,(315) 345-0600 www.ssinterfaithcdc.orgContact for locations & times,Contact for Locations,Syracuse,NY,13201,Diane Turner,3153450600,http://www.southsideinterfaithcdc.org,Mon-Fri  9am-5pmSaturday 9am-2pm,Year-round,Y,43.04585,-76.15233,"Contact for Locations
(43.04585, -76.15233)"
Ontario,Canandaigua Farmers' Market,"Mills & Bemon Sts.,East side of Main St.",Beeman St and Mill St,Canandaigua,NY,14424,Phillip Munson,5853297666,http://www.canandaiguafarmersmarket.com,Sat  8:30am-12:30pm,June 1 - October 26,Y,42.88534,-77.27837,"Beeman St and Mill St
(42.88534, -77.27837)"
Ontario,Geneva Farmers' Market,"Municipal parking lot, Exchange St.",400 Exchange St,Geneva,NY,14456,Marie Milligan,3157897811,,Thursday  7:30am-1pm,June 20 - October 10,Y,42.8691,-76.98096,"400 Exchange St
(42.8691, -76.98096)"
Ontario,VA Farmers' Market Canandaigua,"VA Medical Center, 400 Fort Hill Ave., Canandaigua",400 Fort Hill Ave,Canandaigua,NY,14424,Debbie Brahm,5853937803,,Tuesday  1:30pm-5:00pm,June 11 - October 8,Y,42.90096,-77.27033,"400 Fort Hill Ave
(42.90096, -77.27033)"
Ontario,Victor Farmers' Market,"Village Hall Parking Lot,60 East Main St.",60 East Main St,Victor,NY,14564,Kathy Rayburn,5857426320,http://www.victorldc.org,Wednesday  3pm-7pm,June 5 - October 30,Y,42.98134,-77.40859,"60 East Main St
(42.98134, -77.40859)"
Orange,Florida Farmers' Market,"Rts. 94 & 17A,  across from Dairy Delight",North Main St and Randall St,Florida,NY,10921,Louise Schultz,8456414482,,Tuesday  11:30am-5:30pm,June 11 - October 29,Y,41.33779,-74.35873,"North Main St and Randall St
(41.33779, -74.35873)"
Orange,Goshen Farmers' Market,Village Square,Main St and Church St,Goshen,NY,10924,Lynn Cione,8452947741,,Friday  10am-5pm,May 24 - November 1,Y,41.40219,-74.32408,"Main St and Church St
(41.40219, -74.32408)"
Orange,Middletown Farmers' Market,"Erie Way, btwn Montgomery & Cottage Sts.",Railroad Ave and Grove St,Middletown,NY,10940,Anne Kelly,8453438075,http://www.middletownbid.com,Saturday  8am-1pm,June 8 - October 26,Y,41.44787,-74.41651,"Railroad Ave and Grove St
(41.44787, -74.41651)"
Orange,Monroe Farmers' Market,"1010 Rt. 17M,Museum Village parking lot",1010 State Route 17M,Monroe,NY,10950,Ray Range,8453441234,,Wednesday  9am-3pm,June 19 - October 30,Y,41.344,-74.19742,"1010 State Route 17M
(41.344, -74.19742)"
Orange,Newburgh/Downing Park Farmers' Market,"Rt. 9 & Rt. 52, City of Newburgh",Robinson Ave and South St,Newburgh,NY,12550,Gail Christiancy,8455655559,http://www.downingpark.org,Friday  10am-4pm,July 12 - October 25,Y,41.50754,-74.02051,"Robinson Ave and South St
(41.50754, -74.02051)"
Orange,Newburgh/Healthy Orange Farmers' Market,"House of Refuge parking lot,131 Broadway",131 Broadway,Newburgh,NY,12550,Jeffrey Woody,8458636455,,Tuesday  10am-3pm,July 9 - October 29,Y,41.50009,-74.01254,"131 Broadway
(41.50009, -74.01254)"
Orange,Newburgh Mall Farmers' Market,Newburgh Mall Parking lot,1401 New York 300,Newburgh,NY,12550,Katie Levato,8455641400,,Saturday  10am-2pm,July 6 - September 28,Y,41.51758,-74.0714,"1401 New York 300
(41.51758, -74.0714)"
Orange,Pine Bush Farmers' Market,"62 Main St.,lot behind Town Hall",62 Main St,Pine Bush,NY,12566,Jacquelyn Carter,8459780273,http://www.pinebushfarmersmarket.com,Saturday  9am-2pm,May 18 - October 19,Y,41.60932,-74.30051,"62 Main St
(41.60932, -74.30051)"
Orange,Route 17 M Farmers' Market,"1 Fischer Lane,Goshen",1 Fischer Lane,New Hampton,NY,10958,John Pahucki III,8453742741,,Sat/Sun  9am-2pm    Thu/Fri  2pm-6pm,Year-round,Y,41.40459,-74.39593,"1 Fischer Lane
(41.40459, -74.39593)"
Orange,Tuxedo Farmers' Market,"Tuxedo Train Station lot,240 Rt. 17N",240 State Route 17,Tuxedo,NY,10987,Christina Tremblay,8459154058,http://www.tuxedofarmersmarket.com,Saturday  9am - 2pm,June 15 - October 26,Y,41.19447,-74.18447,"240 State Route 17
(41.19447, -74.18447)"
Orange,Village of Chester Farmers' Market,Winkler Place,Winkler Place,Chester,NY,10918,Debby Vadala,8455442369,,Sunday  9am-3pm,June 2 - October 27,Y,41.36259,-74.27068,"Winkler Place
(41.36259, -74.27068)"
Orange,Walden Farmers' Market,Village Square,5 Scofield St,Walden,NY,12586,Mike Bliss,8457782655,,Friday  11:30am-4:30pm,June 14 - October 25,Y,41.55983,-74.1895,"5 Scofield St
(41.55983, -74.1895)"
Orange,Warwick Valley Farmers' Market,"South St. parking lot, off Main St., across COC",South St and Bank St,Warwick,NY,10990,Penny Steyer,8459860043,http://www.warwickvalleyfarmersmarket.org,Sunday  9am-2pm,May 12 - November 24,Y,41.25656,-74.35858,"South St and Bank St
(41.25656, -74.35858)"
Orange,West Point/Town of Highlands Farmers' Market,"Main St, Municipal lot, across from Visitor's Center",Main St and Cozzens Ave,Highlands,NY,10928,Olga Anderson,9175091200,,Sunday  9am-2pm,June 16 - October 27,Y,41.3723,-73.96434,"Main St and Cozzens Ave
(41.3723, -73.96434)"
Orleans,Albion/Orleans County Farmers' Market,"Save-A-Lot-parking lot, 320 West Ave.",320 West Ave,Albion,NY,14411,Ann Nice,5857983986,,Saturday  9am-2pm,June 8- October 26,Y,43.24081,-78.20337,"320 West Ave
(43.24081, -78.20337)"
Orleans,Medina/Orleans County Farmers' Market,Erie Canal Basin,Main St and Manilla Pl,Medina,NY,14103,Ann Nice,5857983986,,Thursday  12 Noon-5pm,June - October,Y,43.22171,-78.38694,"Main St and Manilla Pl
(43.22171, -78.38694)"
Oswego,Fulton Farmers' Market,"Canalview Park & Shop lot, South Second St. (Rt. 481)",South Second St and Canalview Mall,Fulton,NY,13069,Linda Deyo,3153437681,,Saturday  8am-1pm,May 25 - October 12,Y,43.32321,-76.41577,"South Second St and Canalview Mall
(43.32321, -76.41577)"
Oswego,Hillside Farmers' Market,"7753 State Route 3 (Seaway Trail), Pulaski",7753 State Route 3,Pulaski,NY,13142,Dennis Palmer,3152984085,http://www.hillsidefleamarkets.com,Sat/Sun  9am-5pm,May 4 - September 29,Y,43.58758,-76.17344,"7753 State Route 3
(43.58758, -76.17344)"
Oswego,New Haven Farmers' Market,"Town Hall,Route 104",4279 State Route 104,New Haven,NY,13121,Debra Allen,3159633900,http://www.newhavenny.com,Monday  4pm-7pm,June 3 - September 30,Y,43.47981,-76.31714,"4279 State Route 104
(43.47981, -76.31714)"
Oswego,Oswego Farmers' Market,"West 1st St. ,btwn Bridge & W. Oneida Sts.",West Bridge St and West 1st St,Oswego,NY,13126,Linda Deyo,3153437681,,Thursday  4:30pm-8:30pm,May 23 - October 10,Y,43.45656,-76.51127,"West Bridge St and West 1st St
(43.45656, -76.51127)"
Oswego,Phoenix Farmers' Market,"Three Rivers Shopping Plaza,Route 57",202 County Route 57,Phoenix,NY,13135,Tammy Knapp,3156955589,,Monday  4pm-7pm,June 3 - September 23,Y,43.21639,-76.28409,"202 County Route 57
(43.21639, -76.28409)"
Oswego,Pulaski Farmers' Market,"South Park, center of village",Lake St and Broad St,Pulaski,NY,13142,Brian Leary,3152986407,,Friday  4pm-8pm,June 7 - September 27,Y,43.56713,-76.12811,"Lake St and Broad St
(43.56713, -76.12811)"
Oswego,Volney Farmers' Market,"Paved Parking Area at Town Hall,1445 Co. Rt. 6, Fulton",1445 Co. Rt. 6,Fulton,NY,13069,Barbara MacEwen,3155938288,,Tuesday  4pm-7pm,June 4 - October 1,Y,43.3415,-76.35839,"1445 Co. Rt. 6
(43.3415, -76.35839)"
Otsego,Cooperstown Farmers' Market,"Pioneer Alley, 101 Main St. Behind Key Bank",101 Main St,Cooperstown,NY,13326,Ellen Pope,6075478881,http://www.otsego2000.org,Saturday  8am-2pmJul-Aug Tue 12pm-5pm,Year-round,Y,42.70001,-74.92526,"101 Main St
(42.70001, -74.92526)"
Otsego,Fly Creek Farmers' Market,"852 Cty Hwy 26, United Methodist",852 County Highway 26,Fly Creek,NY,13337,Kristin Pullyblank,6075471327,,Wednesday 3pm - 6pm,June 19 - September 25,Y,42.7163,-74.98261,"852 County Highway 26
(42.7163, -74.98261)"
Otsego,Morris Farmers' Market,"Main St.,behind Firehouse",Main St and Church St,Morris,NY,13808,Paul Koch,6072635536,,Thursday  3pm-6pm,May 30 - October 10,Y,42.54813,-75.24686,"Main St and Church St
(42.54813, -75.24686)"
Otsego,Oneonta Farmers' Market,"Main St. Plaza (Rt. 7),  near Key Bank(Winter - Main St. Garage Walkway)",Main St and Dietz St,Oneonta,NY,13820,Dana LaCroix,6074370158,,"Saturday  9am-2pm(Jan-May, alternate Sat)",Year-round,Y,42.45378,-75.06214,"Main St and Dietz St
(42.45378, -75.06214)"
Otsego,Richfield Springs Area Farmers' Market,"Spring Park, Main St. (Rt. 20)across from Post Office",Main St and Church St,Richfield Springs,NY,13439,Ronald Bayzon,3158582703,,Thursday  2pm - 6pm    Saturday 8am - 1pm,June 15 - October 26,Y,42.85342,-74.98512,"Main St and Church St
(42.85342, -74.98512)"
Putnam,Brewster Farmers' Market,"Municipal lot, 208 E. Main St., Rts. 22 & 6",208 E. Main St,Brewster,NY,10509,K.C. Anderson,9146716262,http://www.brewsterfarmersmarket.org,Wed/Sat  9am-2pm,June 12 - November 23,Y,41.39526,-73.60705,"208 E. Main St
(41.39526, -73.60705)"
Putnam,Cold Spring Farmers' Market,"1601 Rt 9D, Boscobel House & Gardens(Indoor - Philipstown Community Ctr)",1601 State Route 9D,Cold Spring,NY,10516,Krystal Ford,8452145441,http://www.csfmmarket.org,Saturday  8:30am-1:30pm(Indoor - Nov - April),Year-round,Y,41.41038,-73.9377,"1601 State Route 9D
(41.41038, -73.9377)"
Queens,Astoria Greenmarket,"14th St., btw 31st Ave. & 31st Rd.",14th St and 31st Ave,Astoria,NY,11106,Chelsea Whittaker,2127887476,http://www.grownyc.org,Wednesday  8am-3pm,July 10 - November 20,Y,40.76825,-73.93203,"14th St and 31st Ave
(40.76825, -73.93203)"
Queens,Corona Greenmarket,Roosevelt Ave. at 103rd St.,Roosevelt Ave and 103rd St,Corona,NY,11368,Chelsea Whittaker,2127887476,http://www.grownyc.org,Friday  8am - 3pm,July 5 - November 22,Y,40.7499,-73.86268,"Roosevelt Ave and 103rd St
(40.7499, -73.86268)"
Queens,Elmhurst Hospital Greenmarket,"41st Ave.,btw 80th & 81st Sts.",41st Ave and 80th St,Elmhurst,NY,11373,Chelsea Whittaker,2127887476,http://www.grownyc.org,Tuesday  8am - 4pm,June 4 - November 26,Y,40.74579,-73.88549,"41st Ave and 80th St
(40.74579, -73.88549)"
Queens,Forest Hills Greenmarket,"South side of Queens Blvd at 70th Ave., Queens",Queens Blvd and 70th Ave,Queens,NY,11375,Chelsea Whittaker,2127887476,http://www.grownyc.org,Sunday  8am-3pm,April 7 - December 29,Y,40.72188,-73.84639,"Queens Blvd and 70th Ave
(40.72188, -73.84639)"
Queens,Harvest Home Roy Wilkins Park,177th and Baisley Blvd (entrance)Roy Wilkins Park,Merrick and Baisley Blvd,Queens,NY,11434,Maritza Owens,2128283361,http://www.harvesthomefm.org,Saturday  8am-4pm,July 6 - November 16,Y,40.68381,-73.76973,"Merrick and Baisley Blvd
(40.68381, -73.76973)"
Queens,Jackson Heights Greenmarket,"Travers Park, btw 77th & 78th Sts.34th Ave., at 78th St.",34th Ave and 77th St,Jackson Heights,NY,11372,Chelsea Whittaker,2127887476,http://www.grownyc.org,Sunday  8am - 3pm,Year-round,Y,40.7532,-73.88968,"34th Ave and 77th St
(40.7532, -73.88968)"
Queens,Jamaica Farmers' Market,160th St. off Jamaica Ave.,160th St and Jamaica Ave,Jamaica,NY,11432,Doug Ornstein,9149234837,http://www.downtoearthmarkets.com,Fri/Sat  8:30am-4pm,June 21 - November 23,Y,40.70374,-73.79915,"160th St and Jamaica Ave
(40.70374, -73.79915)"
Queens,Joseph Addabbo FHC Farmers' Market,"Joseph Addabbo FHC 6200 Beach Channel Dr, Parking Lot, Arverne",6200 Beach Channel Dr,Arverne,NY,11692,Carline Desire,7189457150,http://www.addabbo.org,Saturday  8am-2pm,July 6 - November 30,Y,40.5932,-73.79174,"6200 Beach Channel Dr
(40.5932, -73.79174)"
Queens,Long Island City Youthmarket,Vernon Blvd. btwn 47th & 48th Aves.,Vernon Blvd and 48th Ave,Long Island City,NY,11101,Ryan Morningstar,5089442083,,Saturday  9am-4pm,July 13 - October 23,Y,40.74401,-73.9537,"Vernon Blvd and 48th Ave
(40.74401, -73.9537)"
Queens,Pomonok Farmers' Market,"QCH Pomonok Center, 67-09 Kissena Blvd., Flushing",67-09 Kissena Blvd,Flushing,NY,11365,Amy Tam-Liao,7185916060,http://www.qchnyc.org,Friday  10am-5pm,July 12 - November 29,Y,40.73529,-73.81463,"67-09 Kissena Blvd
(40.73529, -73.81463)"
Queens,Queens Botanical Garden Farmers' Market,"Sidewalk off Garden, Dahlia Ave.,off Main St., Flushing",Main St and Dahlia Ave,Flushing,NY,11355,Doug Ornstein,9149234837,http://www.downtoearthmarkets.com,Friday  8:30am-4pm,June 21 - November 22,Y,40.75187,-73.82639,"Main St and Dahlia Ave
(40.75187, -73.82639)"
Queens,Queens Hospital Center Farmers' Market,"82-68 164th St., in front of Ambulatory Care Pavilion",82-68 164th St,Jamaica,NY,11432,"Marcy Stein-Albert, MD",7188834500,,Thursday  7:30am-4pm,Year-round,Y,40.71755,-73.80357,"82-68 164th St
(40.71755, -73.80357)"
Queens,Ridgewood Youthmarket,"Cypress, btwn Myrtle & Putnam Aves.,Veteran's Triangle (Parks)",Myrtle Ave and Cypress Ave,Ridgewood,NY,11385,Ryan Morningstar,5089442083,,Saturday  10am-3pm,July 13 - November 23,Y,40.70011,-73.90619,"Myrtle Ave and Cypress Ave
(40.70011, -73.90619)"
Queens,Socrates Sculpture Park Greenmarket,Vernon Blvd. & Broadway,Vernon Blvd and Broadway,Astoria,NY,11106,Chelsea Whittaker,2127887476,http://www.grownyc.org,Saturday  8am - 4pm,June 1 - November 23,Y,40.76769,-73.93618,"Vernon Blvd and Broadway
(40.76769, -73.93618)"
Queens,Sunnyside Greenmarket,"Skillman Ave.,btw 42nd & 43rd Sts.",Skillman Ave and 42nd St,Sunnyside,NY,11104,Chelsea Whittaker,2127887476,http://www.grownyc.org,Saturday  8am - 3pm,June 1 - December 21,Y,40.74699,-73.92173,"Skillman Ave and 42nd St
(40.74699, -73.92173)"
Rensselaer,Brunswick Farmers' Market,Brunswick Community Center18 Keyes Lane,18 Keyes Lane,Brunswick,NY,12180,Sheila Hyde,5182793461,http://www.townofbrunswick.org,Tuesday 5pm - 8pm,June 25 - August 27,Y,42.75263,-73.62021,"18 Keyes Lane
(42.75263, -73.62021)"
Rensselaer,North Greenbush Farmers' Market,"Twin Town Little League Park, Williams Rd.",95 Williams Rd,North Greenbush,NY,12180,Kathryn Connolly,5182834306,,Thursday  2:30pm-6pm,June 13 - September 12,Y,42.69013,-73.67672,"95 Williams Rd
(42.69013, -73.67672)"
Rensselaer,Troy Waterfront Farmers' Market,"River Street, Downtown TroyCorner of River Street & 3rd(Winter-The Atrium)",433 River St,Troy,NY,12180,Monica Kurzejeski,5187084216,http://www.troymarket.org,Saturday  9am-1pm,Year-round,Y,42.7374,-73.68724,"433 River St
(42.7374, -73.68724)"
Richmond,Saint George Greenmarket,"Theater Parking Lot,St. Mark's, at Hyatt Sts.",St Marks Pl and Hyatt St,Staten Island,NY,10301,Chelsea Whittaker,2127887476,http://www.grownyc.org,Saturday  8am - 2pm,May 4 - November 23,Y,40.64159,-74.07791,"St Marks Pl and Hyatt St
(40.64159, -74.07791)"
Richmond,Staten Island Mall Greenmarket,"Richmond Ave. entrance,inside parking lot",2655 Richmond Ave,Staten Island,NY,10314,Chelsea Whittaker,2127887476,http://www.grownyc.org,Saturday  8am - 3pm,June 15 - November 23,Y,40.58091,-74.16911,"2655 Richmond Ave
(40.58091, -74.16911)"
Rockland,Haverstraw Farmers' Market,"40 New Main St.,in front of Village Hall",New Main St and Maple Ave,Haverstraw,NY,10927,Alexandria Evans,6463394746,,Sunday  9am-1pm,June 9 - October 27,Y,41.19639,-73.96645,"New Main St and Maple Ave
(41.19639, -73.96645)"
Rockland,Nyack Farmers' Market,"Municipal parking lot, Main St. & Franklin Ave.(Winter - Nyack Center)",Main St and Franklin St,Nyack,NY,10960,Pam Moskowitz,8454943408,http://www.nyackchamber.org,Thursday  8am-2pm(Winter - starts TBD),May 9 - November 21,Y,41.09154,-73.92161,"Main St and Franklin St
(41.09154, -73.92161)"
Rockland,Piermont Farmers' Market,"M & T Bank lot, Ash St. & Piermont Ave.",Ash St and Piermont Ave,Piermont,NY,10968,Doug Ornstein,9149234837,http://www.downtoearthmarkets.com,Sunday  9:30am-3pm,May 26 - November 24,Y,41.04137,-73.9164,"Ash St and Piermont Ave
(41.04137, -73.9164)"
Rockland,Spring Valley Farmers' Market,"Memorial Park, One Veterans Drive",Memorial Park,Spring Valley,NY,10977,Doug Ornstein,9149234837,http://www.downtoearthmarkets.com,Wed  8:30am-3pm,June 12 - November 20,Y,41.11506,-74.0425,"Memorial Park
(41.11506, -74.0425)"
Rockland,Suffern Farmers' Market,"Commuter parking lot A, Orange Ave.(Indoor - Suffern Community Center)",Orange Ave and Wayne Ave,Suffern,NY,10901,Alexandria Evans,6463394746,,"Saturday  8:30am-1pm(Dec-May, twice monthly, 9 - 2)",Year-round,Y,41.11713,-74.1549,"Orange Ave and Wayne Ave
(41.11713, -74.1549)"
Rockland,West Haverstraw Farmers' Market,"Village Hall parking lot,130 Samsondale Ave.",130 Samsondale Avenue,West Haverstraw,NY,10993,Catherine Kopf,8459472800,http://www.westhaverstraw.org,Thursday  8am-12 Noon,June 27 - October 10,Y,41.20349,-73.97336,"130 Samsondale Avenue
(41.20349, -73.97336)"
Saratoga,Ballston Spa Farmers' Market,"Wiswall Park, Front & Low Sts.",Front St and Low St,Ballston Spa,NY,12020,Ellen Mottola,5188852772,http://www.ballston.org,Thursday  3pm  - 6pmSaturday 9am - 12pm,June 13 - September 28,Y,43.00256,-73.84964,"Front St and Low St
(43.00256, -73.84964)"
Saratoga,Burnt Hills Farmers' Market,"Route 50 & Lakehill Road,Burnt Hills, NY  (772 Rte 50)",772 Saratoga Rd,Burnt Hills,NY,12027,Gaynell Bliss,5183993488,,Saturday  9am-1pm,May 11 - October 12,Y,42.90479,-73.90284,"772 Saratoga Rd
(42.90479, -73.90284)"
Saratoga,Clifton Park/Saratoga Farmers' Market,"St. George's Church,912 Rt. 146 at Maxwell Drive",912 State Route 146,Clifton Park,NY,12065,Justine Denison,5186642510,http://www.saratogafarmersmarket.com,Thursday  2pm-5pm,July 11 - October 24,Y,42.866,-73.79782,"912 State Route 146
(42.866, -73.79782)"
Saratoga,Gansevoort Farmers' Market,"Village Park,Corner of Route 32",State Route 32 and Wilton-Gansevoort Rd,Gansevoort,NY,12831,Linda Gifford,5187920198,,Thursday  3pm-6pm,June - October,Y,43.19611,-73.65161,"State Route 32 and Wilton-Gansevoort Rd
(43.19611, -73.65161)"
Saratoga,Greenfield Center Farmers' Market,"Middle Grove Park, near post officeMiddle Grove Rd., Greenfield Center",430 Middle Grove Rd,Greenfield,NY,12850,Anne Marie Johnson,5188636104,http://www.fultonmontgomeryfarmersmarket.org,"Friday  4pm-7pm(October, closing at 6pm)",June - October,Y,43.09209,-73.89096,"430 Middle Grove Rd
(43.09209, -73.89096)"
Saratoga,Malta/Saratoga Farmers' Market,"Malta Community Center,Route 9",1 Bayberry Drive,Ballston Spa,NY,12020,Justine Denison,5186642510,http://www.saratogafarmersmarket.com,Tuesday  3pm-6pm,June 4 - October 29,Y,42.97942,-73.78949,"1 Bayberry Drive
(42.97942, -73.78949)"
Saratoga,Saratoga Farmers' Market,"High Rock Park,Saratoga Springs(Winter - Division St. School)",High Rock Ave and Lake Ave,Saratoga Springs,NY,12866,Justine Denison,5186642510,http://www.saratogafarmersmarket.com,Sat  9am-1pm    Wed May-Oct 3pm-6pm,Year-round,Y,43.08288,-73.78304,"High Rock Ave and Lake Ave
(43.08288, -73.78304)"
Saratoga,South Glens Falls Farmers' Market,"Village Park, Spring St.",64 Spring St,South Glens Falls,NY,12803,Linda Gifford,5187920198,,Monday  10am-1pm,June - October,Y,43.30035,-73.63221,"64 Spring St
(43.30035, -73.63221)"
Saratoga,Town of Galway Farmers' Market,"Pavilion at Town playing fields,Sacandaga Rd.",5188 New York 147,Galway,NY,12074,Michael Tillson,5188829306,,Friday  4pm-7pm,June 28 - September 13,Y,43.01545,-74.03111,"5188 New York 147
(43.01545, -74.03111)"
Schenectady,Farm to Preschool I Farmers' Market,44 Washington Ave.Schenectady,44 Washington Ave,Schenectady,NY,12305,Darlene Yule,5184267181,,Tuesday  2pm-5pm,June 27 - September 26,N,42.81645,-73.9492,"44 Washington Ave
(42.81645, -73.9492)"
Schenectady,Farm to Preschool II Farmers' Market,125 Bigelow Ave.Schenectady,125 Bigelow Ave,Schenectady,NY,12304,Darlene Yule,5184267181,,Tuesday 2pm - 5pm,July 2 - September 24,N,42.79521,-73.92472,"125 Bigelow Ave
(42.79521, -73.92472)"
Schenectady,Schenectady Bellevue Farmers' Market,2176 Broadway,2176 Broadway,Schenectady,NY,12306,Julia Lewis,5183773551,,Thu 6/11-9/12  4pm-7pmThu 9/19-10/3 3:30-6:30,June 11 - October 3,Y,42.79699,-73.96735,"2176 Broadway
(42.79699, -73.96735)"
Schenectady,Schenectady City Hall Farmers' Market,"City Hall, Franklin & Jay Sts.",Franklin St and Jay St,Schenectady,NY,12305,Steve Feeney,5183862225,,Thursday  9am-1:30pm,May 9 - October 31,Y,42.81378,-73.94032,"Franklin St and Jay St
(42.81378, -73.94032)"
Schenectady,Schenectady Greenmarket,"Jay St., near City Hall(Winter - Inside Proctors)",State St and Jay St,Schenectady,NY,12305,Debbie Forester,5189373279,,Sunday  10am-2pm,Year-round,Y,42.81253,-73.94137,"State St and Jay St
(42.81253, -73.94137)"
Schenectady,Schenectady St. Luke's Farmers' Market,"St. Luke's Church,1235 State Street",1235 State St,Schenectady,NY,12304,Steve Feeney,5183862225,,Tuesday  9am-1pm,June 11 - October 22,Y,42.79894,-73.92413,"1235 State St
(42.79894, -73.92413)"
Schenectady,Schenectady Union St. Farmers' Market,"Caldwell & Bankers Real Estate parking1760 Union St, Niskayuna 12309",1760 Union St,Niskayuna,NY,12309,Al Lansing,5182752570,,Saturday 9am - 1pm,May 5 - October 27,Y,42.8022,-73.8992,"1760 Union St
(42.8022, -73.8992)"
Schoharie,Schoharie Co. Country Music Festival FM,"McCarthy Tire Center parking lot,942 E. Main, Rt. 7E, Cobleskill",942 East Main St,Cobleskill,NY,12043,Donna Olsen,5182842609,,Sat  10am-2pm Wed 7/24-9/25 3p-5p,July 13 - October 12,Y,42.67886,-74.46711,"942 East Main St
(42.67886, -74.46711)"
Schoharie,Sharon Springs Farmers' Market,"Main Street, Across from Roseboro Hotel(Winter - Library)",Main Street and Washington Street,Sharon Springs,NY,13459,Kate Miller,5189350940,,"Saturday  9am-2pm(Nov-May, Sat 10-12)",Year-round,Y,42.79545,-74.61721,"Main Street and Washington Street
(42.79545, -74.61721)"
Schuyler,Watkins Glen Farmers' Market,"Lafayette Park, 5th St.(Winter - St. James Episcopal)",Fifth St and Porter St,Watkins Glen,NY,14891,Liz Martin,6075464535,,"Friday  3pm-7pm(Nov-Feb, Fri 3-6)",May 24 - February 28,Y,42.38096,-76.86954,"Fifth St and Porter St
(42.38096, -76.86954)"
Seneca,Seneca Falls Farmers' Market,"People's Park,Water Street, by the Canal",Water St and Bridge St,Seneca Falls,NY,13148,Patti Battley,3155399251,,Wed  9am-1:30pm,June - October,Y,42.90412,-76.80005,"Water St and Bridge St
(42.90412, -76.80005)"
Steuben,Bath Saturday Farmers' Market,"Pulteney Park,Steuben St.",Steuben St and Liberty St,Bath,NY,14810,Phillip Glosick,6073463292,,Saturday  9am-2pm,May 4 - October 26,Y,42.33353,-77.31842,"Steuben St and Liberty St
(42.33353, -77.31842)"
Steuben,Bath Wednesday Farmers' Market,"Pulteney Square Park, Steuben St.",Steuben St and Liberty St,Bath,NY,14810,David Clarke,6075275045,,Wednesday  9am-3pm,May 1 - October 30,Y,42.33353,-77.31842,"Steuben St and Liberty St
(42.33353, -77.31842)"
Steuben,Corning Farmers' Market,"Riverfront Centennial Park,Corning's Gaffer District",State Route 414 and East Tioga Ave,Corning,NY,14830,Lin Kotlinski,6079376292,http://www.gafferdistrict.com,Thursday  10am-4pm,June 6 - October 24,Y,42.14366,-77.05226,"State Route 414 and East Tioga Ave
(42.14366, -77.05226)"
St. Lawrence,Canton Farmers' Market,"Village Park, Main & Park Sts.(Indoor - First Presbyterian Church)",Main St and Park St,Canton,NY,13617,Zoe Baker,3152448475,http://www.cantonfarmersmarket.org,Tue/Fri  9am-2pm,May 10 - October 29,Y,44.59564,-75.16921,"Main St and Park St
(44.59564, -75.16921)"
St. Lawrence,Fowler Farmers' Market,"Bob's Market,Route 58",Farm to Market Rd and Route 58,Fowler,NY,13642,Lorraine Taylor,3152870331,,Sunday  9am-2pm,June 9 - October 20,Y,44.28284,-75.39121,"Farm to Market Rd and Route 58
(44.28284, -75.39121)"
St. Lawrence,Gouverneur Farmers' Market,"Village Park, Main St.",Church St and John St,Gouverneur,NY,13642,Lorraine Taylor,3152870331,,Thursday  9am-2pm,June 6 - October 31,Y,44.3353,-75.46749,"Church St and John St
(44.3353, -75.46749)"
St. Lawrence,Hogansburg Farmers' Market,"Senior Citizen Building Parking Lot,behind State Trooper Barracks",29 Business Park Rd,Hogansburg,NY,13655,Shirley Peck,3157695322,,Tue/Wed  9am-4pm,July 9 - October 30,Y,44.98722,-74.64943,"29 Business Park Rd
(44.98722, -74.64943)"
St. Lawrence,Massena Sunday Farmers' Market,"Main Street, in front of Old Chamber of Commerce",60 Main St,Massena,NY,13662,Shirley Peck,3157695322,,Sunday  8am-3pm,July 7 - October 27,Y,44.93114,-74.89334,"60 Main St
(44.93114, -74.89334)"
St. Lawrence,Massena Thursday Farmers' Market,Triple A parking lot,3 Maltby Ave,Massena,NY,13362,Shirley Peck,3157695322,,Thursday  10am-4pm,July 11 - October 31,Y,44.92767,-74.8777,"3 Maltby Ave
(44.92767, -74.8777)"
St. Lawrence,Norwood Farmers' Market,"Park Square, Main (Rt. 56) & Park Sts.",Main St and Park St,Norwood,NY,13668,Shirley Peck,3157695322,,Monday  10am-5pm,July 8 - October 28,Y,44.74905,-74.99353,"Main St and Park St
(44.74905, -74.99353)"
St. Lawrence,Ogdensburg Saturday Green Market,"Library Park, 300 block Riverside Ave.(Oct - Dec - First Presbyterian Church)",Riverside St and State St,Ogdensburg,NY,13669,Sandra Porter,3153933620,http://www.ogdensburgny.com,Saturday  9am-1pm,Year-round,Y,44.69972,-75.49459,"Riverside St and State St
(44.69972, -75.49459)"
St. Lawrence,Ogdensburg Thursday Green Market,"CHMC,King St & Mansion Ave",King St and Mansion Ave,Ogdensburg,NY,13669,Sandra Porter,3153933620,http://www.ogdensburgny.com,Thursday  2pm-5pm,May 16 - September 26,Y,44.69189,-75.50066,"King St and Mansion Ave
(44.69189, -75.50066)"
St. Lawrence,Potsdam Main Street Farmers' Market,"Main St.,Opposite Roxy Theater",Main St and Union St,Potsdam,NY,13676,Marta Kowalski,8024313841,http://www.potsdamfarmersmarket.com,Sat/Wed  9am - 2pm,May - October,Y,44.66865,-74.98493,"Main St and Union St
(44.66865, -74.98493)"
St. Lawrence,Winthrop Farmers' Market,"Key Bank Parking Lot,across from Agway",645 New York 11C,Winthrop,NY,13697,Shirley Peck,3157695322,,Friday  8am-3pm,July 12 - October 25,Y,44.79402,-74.78794,"645 New York 11C
(44.79402, -74.78794)"
Suffolk,Amityville Farmers' Market,"9-11 Memorial Park parking lot,East Side of Route 110",253 Broadway,Amityville,NY,11701,Bernadette Martin,6316785227,http://www.kennedyplazafarmersmarket.com,Saturday  9am-1pm,July 6 - October 26,Y,40.6799,-73.41695,"253 Broadway
(40.6799, -73.41695)"
Suffolk,Babylon Village Farmers' Market,"LIRR Babylon Station parking lot,Railroad and Deer Park Aves.",Railroad Ave and N Carll Ave,Babylon,NY,11702,Jaime Greci,5162977997,http://www.winterfarmersmarketlongisland.com,Sunday  8am-1pm,June 2 - November 24,Y,40.6996,-73.32594,"Railroad Ave and N Carll Ave
(40.6996, -73.32594)"
Suffolk,East Hampton Farmers' Market,"Nick & Toni's lot, 136 N. Main St.",136 North Main St,Easthampton,NY,11937,Katherine Plumb,6317259133,,Friday  9am-1pm,May 24 - August 30,Y,40.97017,-72.18124,"136 North Main St
(40.97017, -72.18124)"
Suffolk,Farmingdale Farmers' Market,"Municipal Parking lot,behind Taste of Long Island Specialty Food Market 211-A Main St.",211-A Main St.,Farmingdale,NY,11735,Jim Thompson,5166942859,http://www.eatlocallongisland.com,Sunday  10am-3pm,May 12 - November 24,Y,40.73406,-73.44599,"211-A Main St.
(40.73406, -73.44599)"
Suffolk,Flanders Farmers' Market,"Crohan Community Senior Center, 655 Flanders Road (Rt 24)",655 Flanders Rd,Flanders,NY,11901,Kristen Doulos,6312875745,http://www.southhamptonny.gov,Saturday  10am-2pm,June 29 - October 12,Y,40.90867,-72.63666,"655 Flanders Rd
(40.90867, -72.63666)"
Suffolk,Greater Bellport Farmers' Market,"685 Station Rd., near Brookhaven Ave.Poly Mag building parking lot",685 Station Rd,Bellport,NY,11713,Joanne Massimo,6319248088,,Saturday  11am-4pm,July 6 - October 26,Y,40.77797,-72.94364,"685 Station Rd
(40.77797, -72.94364)"
Suffolk,Greenport Farmers' Market,"United Methodist Church lot, 624 1st St.",624 1st St,Greenport,NY,11944,Lara McNeil,6317743965,http://www.greenportfarmersmarket.com,Saturday  9am-1pm,May 25 - October 12,Y,41.10717,-72.36245,"624 1st St
(41.10717, -72.36245)"
Suffolk,Hauppauge Farmers' Market,"Teachers Federal Credit Union 102Motor Pkwy, exit 53 LIE",102 Motor Pkwy,Happauge,NY,11788,Ethel Terry,6313233653,http://www.longislandgrowersmarket.com,Thursday 8am - 1pm,June 6 - Aug 29,Y,40.80716,-73.26671,"102 Motor Pkwy
(40.80716, -73.26671)"
Suffolk,Huntington Village Farmers' Market,"Downtown Huntington Village, Municipal Parking LotMain St, Rt. 25A, east of Rt. 110 N.",State Route 110 and Main St,Huntington,NY,11743,Ethel Terry,6313233653,http://www.longislandgrowersmarket.com,Sunday  7am-12 Noon,May 26 - November 24,Y,40.87122,-73.42628,"State Route 110 and Main St
(40.87122, -73.42628)"
Suffolk,Islip Farmers' Market,"Town Hall parking lotRt. 27A, Montauk Hwy., west of Rt. 111",State Route 27A and State Route 111,Islip,NY,11751,Ethel Terry,6313233653,http://www.longislandgrowersmarket.com,Saturday 7am-12 Noon,May 25 - November 23,Y,40.73028,-73.20731,"State Route 27A and State Route 111
(40.73028, -73.20731)"
Suffolk,Montauk Farmers' Market,"Montauk Village Green, 743 Montauk Hwy",742 Montauk Hwy,Montauk,NY,11954,Laraine Creegan,6316682355,,Thursday  9am-2pm,June 13 - October 17,Y,41.03436,-71.94424,"742 Montauk Hwy
(41.03436, -71.94424)"
Suffolk,Patchogue Farmers' Market,"7-Eleven parking lot, Montauk Hwy., 225 E. Main St.",Montauk Hwy and State Route 112,Patchogue,NY,11772,Ethel Terry,6313233653,http://www.longislandgrowersmarket.com,Friday  8am-1pm,July 5 - November 15,Y,40.76602,-73.00689,"Montauk Hwy and State Route 112
(40.76602, -73.00689)"
Suffolk,Port Jefferson Farmers' Market,"Steam Room parking lot,Rts. 25A & 112",State Route 25A and State Route 112,Port Jefferson,NY,11776,Ethel Terry,6313233653,http://www.longislandgrowersmarket.com,Thursday  10am-4:30pm,July 4 - October 17,Y,40.93177,-73.05281,"State Route 25A and State Route 112
(40.93177, -73.05281)"
Suffolk,Riverhead Farmers' Market,"Downtown Riverhead, near Aquarium at Peconic River",Main St and Peconic Ave,Riverhead,NY,11901,Ethel Terry,6313233653,http://www.longislandgrowersmarket.com,Thursday  11am-4pm,July 11 - October 24,Y,40.91696,-72.66253,"Main St and Peconic Ave
(40.91696, -72.66253)"
Suffolk,Rocky Point Farmers Market,"Broadway and Prince,Rocky Point, Long Island",Broadway and Prince Rd,Rocky Point,NY,11778,Charles Bevington,6318493488,http://www.rockypointfarmersandartisansmarket.org,Sunday  8am-1pm,May 12 - November 17,Y,40.94927,-72.92391,"Broadway and Prince Rd
(40.94927, -72.92391)"
Suffolk,Sag Harbor Farmers' Market,"Breakwater Yacht Club parking lot,Bay & Burke Sts.",Bay St and Burke St,Sag Harbor,NY,11963,Ana Nieto,2126442604,http://www.sagharborfarmersmarket.org,Saturday  9am-1pm,May 18 - October 26,Y,41.00106,-72.29134,"Bay St and Burke St
(41.00106, -72.29134)"
Suffolk,Shiloh Community Farmers' Market,"221 Merritt Ave., Wyandanch",221 Merritt Ave,Wyandanch,NY,11798,Sondra Cochran,6316434786,http://www.wyandanchcdc.org,Saturday  1pm-4pm,July 13 - October 19,Y,40.75311,-73.36709,"221 Merritt Ave
(40.75311, -73.36709)"
Suffolk,Tanger Outlets Farmers' Market,"152 The Arches Circle,Tanger Outlets, Deer Park",Grand Blvd and The Arches Circle,Deer Park,NY,11729,Jim Thompson,5166942859,http://www.eatlocallongisland.com,Saturday  10am-3pm,June 1 - November 23,Y,40.76169,-73.30335,"Grand Blvd and The Arches Circle
(40.76169, -73.30335)"
Suffolk,Westhampton Beach Farmers' Market,"85 Mill Rd., Westhampton Beachnext to Historical Society",85 Mill Rd,Westhampton Beach,NY,11978,Barbara Riegger,6312883337,http://www.westhamptonchamber.com,Saturday  9am-1pm,May 11 - November 23,Y,40.81231,-72.6434,"85 Mill Rd
(40.81231, -72.6434)"
Sullivan,Bethel Woods Harvest Festival Farmers' Market,"Hurd & W. Shore Rds.Bethel, N.Y.",Hurd Rd and West Shore Rd,Bethel,NY,12783,Channyn Cullingan,8452952569,http://www.bethelwoodscenter.org,Sunday  11am-4pm,September Only,Y,41.70295,-74.88208,"Hurd Rd and West Shore Rd
(41.70295, -74.88208)"
Sullivan,Callicoon Farmers' Market,"Callicoon Creek Park, Audrey Dorrer Dr.(Indoor - Delaware Youth Center)",Bridge St and Dorrer Dr,Callicoon,NY,12723,Danielle Gaebel,,http://www.sullivancountyfarmersmarkets.org,"Sunday 11am - 2pm;(Indoor, alternate Sundays)",Year-round,Y,41.76634,-75.05897,"Bridge St and Dorrer Dr
(41.76634, -75.05897)"
Sullivan,Kauneonga Lake Farmers' Market,"3594 Route 55, Firefighter_x001a_s Pavilion",3594 Route 55,Kauneonga Lake,NY,12783,Danielle Gaebel,,http://www.sullivancountyfarmersmarkets.org,Friday 3pm - 6pm,July 5 - August 30,Y,41.69385,-74.82344,"3594 Route 55
(41.69385, -74.82344)"
Sullivan,Monticello Eat Healthy Farmers' Market,Parks & Recreation Bldg2 Pleasant Street 12701,2 Pleasant Street,Monticello,NY,12701,Elizabeth Higgins,8452926180,,Alternate Mon  11am-2pm,July 1 - October 28,Y,41.65444,-74.68191,"2 Pleasant Street
(41.65444, -74.68191)"
Sullivan,Rock Hill Farmers' Market,223 Rock Hill Drive,223 Rock Hill Drive,Rock Hill,NY,12775,Michelle Lipari,8456994976,,Saturday  10am-2pm,June 15 - September 28,Y,41.62515,-74.59634,"223 Rock Hill Drive
(41.62515, -74.59634)"
Tioga,Newark Valley Farmers' Market,"Village Green,9 Park Street",9 Park Street,Newark Valley,NY,13811,Eric Krenner,6076578251,http://www.facebook.com/newarkvalleyfarmersmarket,Sunday  12 Noon-4pm,May 19 - October 27,Y,42.22314,-76.18366,"9 Park Street
(42.22314, -76.18366)"
Tioga,Owego Farmers' Market,"Rite Aid lot, Main St. & Central Ave.",Main St and Central Ave,Owego,NY,13827,John Purdy,6076428439,,Tue/Fri  9am-1pm,June 14 - October 29,Y,42.10324,-76.26314,"Main St and Central Ave
(42.10324, -76.26314)"
Tioga,Waverly Farmers' Market,"Muldoon Park, Pennsylvania & Park Aves.",Pennsylvania Ave and Park Ave,Waverly,NY,14892,Andy Fagan,6076874020,,Monday  3:30pm-6:30pm,June 24 - October 21,Y,42.00483,-76.53661,"Pennsylvania Ave and Park Ave
(42.00483, -76.53661)"
Tompkins,Groton Farmers' Market,"Center Village Court Apts., 200 South St. (Rt. 38)",200 South St,Groton,NY,13073,Avi Miner,6072275173,http://www.tburgfarmersmarket.com,Tuesday  3:30pm-6:30pm,July 9 - September 10,Y,42.58532,-76.36848,"200 South St
(42.58532, -76.36848)"
Tompkins,Ithaca Farmers' Market (Dewitt Park),"Dewitt Park, N. Cayuga & E. Buffalo Sts.",North Cayuga St and East Buffalo St,Ithaca,NY,14850,Cathy Koken,6073876952,http://www.ithacamarket.com,Tue 5/7 - 10/29  9-2 Thu 6/6 - 10/31  4-7,May 7 - October 31,Y,42.44131,-76.49911,"North Cayuga St and East Buffalo St
(42.44131, -76.49911)"
Tompkins,Ithaca Farmers' Market (Steamboat),"Steamboat Landing, 545 Third St. off Rt. 13",Third St and Carpenter Cir,Ithaca,NY,14850,Cathy Koken,6073876952,http://www.ithacamarket.com,Sat  4/6 - 10/26 9-3 Sun 5/5 - 10/27 10-3Sat 11/2 - 12/21 10-2,April 6 - December 21,Y,42.44931,-76.50746,"Third St and Carpenter Cir
(42.44931, -76.50746)"
Tompkins,Trumansburg Farmers' Market,"Village Park,  Rt. 96 (Main St.) & Rt. 227",State Route 96 and State Route 227,Trumansburg,NY,14886,Avi Miner,6072275173,http://www.tburgfarmersmarket.com,Wednesday  4pm-7pm,May 15 - October 30,Y,42.54224,-76.66579,"State Route 96 and State Route 227
(42.54224, -76.66579)"
Ulster,Kingston Farmers' Market,Wall St. and Broadway(Winter - 272 Wall St.),Wall St and John St,Kingston,NY,12401,Lori Hylton,3472762606,http://www.kingstonfarmersmarket.org,Saturday  9am-2pm,Year-round,Y,41.93383,-74.01969,"Wall St and John St
(41.93383, -74.01969)"
Ulster,Kingston Midweek Satellite Farmers' Market,Broadway Performing Arts Ctr,Cedar St and Broadway,Kingston,NY,12401,Lori Hylton,3472762606,http://www.kingstonfarmersmarket.org,Tuesday  3pm-7pm,Year-round,Y,41.92919,-74.0036,"Cedar St and Broadway
(41.92919, -74.0036)"
Ulster,Rosendale Farmers' Market,"Rosendale Community Center,1033 Rt. 32",1033 State Route 32,Rosendale,NY,12472,Kenneth Oldehoff,8456589232,,Sunday  9am-2pm,June 2 - October 27,Y,41.84223,-74.07571,"1033 State Route 32
(41.84223, -74.07571)"
Ulster,Saugerties Farmers' Market,"Cahill School Parking Lot,115 Main St.(Indoor - Senior Ctr, Market St.)",115 Main St,Saugerties,NY,12477,Barry Benepe,8452466491,http://www.saugertiesfarmersmarket.com,"Saturday  10am - 2pm(Indoor, Sat 12pm -4pm)",Year-round,Y,42.07899,-73.94896,"115 Main St
(42.07899, -73.94896)"
Ulster,Woodstock Farm Festival Farmers' Market,"6 Maple Lane,Woodstock",6 Maple Ln,Woodstock,NY,12498,Megan Reynolds,8456795345,http://www.woodstockfarmfestival.com,Wed  4:30pm-8pm,May 29 - October 23,Y,42.04042,-74.11808,"6 Maple Ln
(42.04042, -74.11808)"
Warren,Glens Falls City Park Farmers' Market,Maple Street,Glens Falls City Park,Glens Falls,NY,12801,Debbie Stevens,5186386301,,Wednesday  3pm-6pm,June 5 - October 30,Y,43.31137,-73.64461,"Glens Falls City Park
(43.31137, -73.64461)"
Warren,Glens Falls Farmers' Market,South Street Market Pavilion(Winter-United Methodist),25 South Street,Glens Falls,NY,12801,John Dickinson,5183076239,http://www.gffma.com,Sat  8am-12 NoonWinter 9am-12 Noon,Year-round,Y,43.30993,-73.64698,"25 South Street
(43.30993, -73.64698)"
Warren,Queensbury Farmers' Market,"Sport Zone, parking lotRoute 9 (across from Suttons)",1043 State Route 9,Queensbury,NY,12804,Hal Davis,5186388508,,Monday  3pm-6pm,June 3 - October 28,Y,43.34352,-73.68632,"1043 State Route 9
(43.34352, -73.68632)"
Warren,Share the Bounty Farmers' Market,"Hudson River Healthcare3360 Route 343, Amenia",3360 Route 343,Amenia,NY,12501,Betsey McCall,5187894259,http://www.neccmillerton.org,Tuesday  9am-1pm,July 2 - September 24,Y,41.85035,-73.55065,"3360 Route 343
(41.85035, -73.55065)"
Washington,Cambridge Farmers' Market,"In front of Cambridge Hotel,Winter - Freight Yard",State Route 372 and Railroad Ave,Cambridge,NY,12816,Fran Morrison,5182611877,,Sunday  10am-2pm,May 19 - December 22,Y,43.02799,-73.381,"State Route 372 and Railroad Ave
(43.02799, -73.381)"
Washington,Fort Edward Farmers' Market,"Broadway Bowl, 359 Broadway, Route 4",359 Broadway,Fort Edward,NY,12828,Linda Gifford,5187920198,,Friday  10am-1pm,June - October,Y,43.28393,-73.58721,"359 Broadway
(43.28393, -73.58721)"
Washington,Greenwich Farmers' Market,70 Main St. (parking lot),70 Main Street,Greenwich,NY,12834,Julie Callahan,5189447149,,Wednesday  3pm-6pm,Year-round,Y,43.08931,-73.49854,"70 Main Street
(43.08931, -73.49854)"
Washington,Hudson Falls Farmers' Market,"Sutherland Pet Store, 1161 Dix Ave.",1161 Dix Ave,Hudson Falls,NY,12839,Linda Gifford,5187920198,,Tuesday  10am-1pm,June - October,Y,43.32024,-73.58262,"1161 Dix Ave
(43.32024, -73.58262)"
Wayne,Lyons Farmers' Market,"Village Square,Church St.",Church St and William St,Lyons,NY,14489,Jill Herendeen,3157197176,,Saturday  7:30am-11am,June 15 - October 26,Y,43.06336,-76.99243,"Church St and William St
(43.06336, -76.99243)"
Wayne,Macedon Farmers' Market,32 Main St.Town of Macedon,32 Main St,Macedon,NY,14502,William Hammond,3159865932,http://www.macedontown.net,Wed  3:30-6:30pm,June 19 - October 16,Y,43.06681,-77.30581,"32 Main St
(43.06681, -77.30581)"
Wayne,Newark Farmers' Market,"Central Park,Church Street",Church St and South Main St,Newark,NY,14513,Jessica Wells,3153319129,http://www.facebook.com/newarkfarmersmarket,Thursday  2:30pm-6pm,June 6 - October 17,Y,43.04468,-77.09522,"Church St and South Main St
(43.04468, -77.09522)"
Wayne,Sodus Farmers' Market,"Sodus Methodist Church parking lot, 58 W. Main St.",58 West Main St,Sodus,NY,14551,Sandy Hall,3154838029,http://sutmc.org/farmersmarket,Wed  2:30pm-6pm,June 12 - October 9,Y,43.23615,-77.06587,"58 West Main St
(43.23615, -77.06587)"
Westchester,Bronxville Farmers' Market,Stone Place at Paxton Ave.,Stone Pl and Paxton Ave,Bronxville,NY,10708,Mary Liz Mulligan,9147792522,http://www.bronxvillechamber.com,Saturday  8:30am-1pm,May 11 - November 23,Y,40.93999,-73.83784,"Stone Pl and Paxton Ave
(40.93999, -73.83784)"
Westchester,Croton Farmers' Market,Lot on Municipal Place off Route 9 Exit,Municipal Pl and Riverside Ave,Croton-on-Hudson,NY,10520,Doug Ornstein,9149234837,http://www.downtoearthmarkets.com,Sunday  9am-2pm,May 26 - November 24,Y,41.20214,-73.88719,"Municipal Pl and Riverside Ave
(41.20214, -73.88719)"
Westchester,Dobbs Ferry Farmers' Market,Cedar & Main Sts.,Cedar St and Main St,Dobbs Ferry,NY,10522,Nancy Chiocchi,9146932935,,Friday  9am-4pm,May 31 - November 29,N,41.01628,-73.87365,"Cedar St and Main St
(41.01628, -73.87365)"
Westchester,Hartsdale Farmers' Market,"Hartsdale Train Station,East Hartsdale Ave.",East Hartsdale Ave and Fenimore Rd,Hartsdale,NY,10530,Nancy Chiocchi,9146932935,,Saturday  8am-3pm,June 1 - November 23,N,41.01072,-73.79657,"East Hartsdale Ave and Fenimore Rd
(41.01072, -73.79657)"
Westchester,Hudson Valley Hospital Farmers' Market,1980 Crompond Rd.,1980 Crompond Rd.,Cortland,NY,10567,Michael Bulger,9147343780,,Tuesday 12 NOON - 6pm,May 14 - Nov 26,N,41.29265,-73.89242,"1980 Crompond Rd.
(41.29265, -73.89242)"
Westchester,Larchmont Farmers' Market,"Metro North parking lot,off Chatsworth Ave.",Chatsworth Ave and North Ave,Larchmont,NY,10538,Doug Ornstein,9149234837,http://www.downtoearthmarkets.com,Saturday  8:30am-1pm,May 25 - December 21,Y,40.93321,-73.75961,"Chatsworth Ave and North Ave
(40.93321, -73.75961)"
Westchester,Muscoot Farmers' Market,"Muscoot Farm,51 Route 100, Katonah",State Route 100 and Muscoot Ln,Katonah,NY,10536,Sue Moga,9148647284,http://www.muscootfarm.org,Sunday  10am-3pm,May 12 - October 27,Y,41.27312,-73.71158,"State Route 100 and Muscoot Ln
(41.27312, -73.71158)"
Westchester,New Rochelle Farmers' Market,Hugenot Park/Twin Lakes,Hugenot St and Lawton St,New Rochelle,NY,10801,Doug Ornstein,9149234837,http://www.downtoearthmarkets.com,Friday  8:30am-2:30pm,June 7 - November 22,Y,40.9108,-73.78301,"Hugenot St and Lawton St
(40.9108, -73.78301)"
Westchester,Ossining Farmers' Market,"Main and Spring Sts., center of Village",Main St and Spring St,Ossining,NY,10562,Doug Ornstein,9149234837,http://www.downtoearthmarkets.com,"Saturday  8:30am-1pm  (Jan-May, 9am - 1pm)",Year-round,Y,41.16104,-73.86352,"Main St and Spring St
(41.16104, -73.86352)"
Westchester,Peekskill Farmers' Market,"Bank St.,btwn Main (Rt. 6) & Park Sts.",Main St and Bank St,Peekskill,NY,10566,Jason Angell,9147372780,,Saturday  8am-2pm,June 8 - November 23,Y,41.29179,-73.91906,"Main St and Bank St
(41.29179, -73.91906)"
Westchester,Pleasantville Farmers' Market,"Parking lot at Memorial Plaza,off Manville Rd., next to Train Station(Indoor - Middle School)",Manville Rd and Wheeler Ave,Pleasantville,NY,10570,Steven Bates,9142054545,,Sat 5/25-11/23  8:30-1Sat 12/7-5/10 9-1,Year-round,Y,41.13523,-73.79219,"Manville Rd and Wheeler Ave
(41.13523, -73.79219)"
Westchester,Ridge Hill Farmers' Market,"Ridge Hill Shopping Center,Market St.",Market Street,Yonkers,NY,10710,Doug Ornstein,9149234837,http://www.downtoearthmarkets.com,Friday  11am-7pm,June 7 - November 22,Y,40.96356,-73.85622,"Market Street
(40.96356, -73.85622)"
Westchester,Rye Farmers' Market,"Parking lot, Theodore Fremd Ave.Behind Purchase Stores",Theodore Fremd Ave and Purchase St,Rye,NY,10580,Doug Ornstein,9149234837,http://www.downtoearthmarkets.com,Sunday  8:30am-2pm,May 26 - December 15,Y,40.98485,-73.68465,"Theodore Fremd Ave and Purchase St
(40.98485, -73.68465)"
Westchester,Saint John's Church - Yonkers Farmers' Market,"Church Courtyard, One Hudson St.",1 Hudson St,Yonkers,NY,10701,Father John Hamilton,9145128156,http://www.stjohnsfarmersmarket.blogspot.com,Thursday  9am-4:30pm,July 11 - November 21,Y,40.93364,-73.89879,"1 Hudson St
(40.93364, -73.89879)"
Westchester,Saw Mill River Farmers' Market,"Van der Danck Park,Larkin Plaza",Nepperhan St and Market Place,Yonkers,NY,10705,Curt Collier,9143752151,http://www.groundworkhv.org,Saturday  10am-4pm,June 1 - October 26,Y,40.93523,-73.90136,"Nepperhan St and Market Place
(40.93523, -73.90136)"
Westchester,Tarrytown Farmers' Market,Patriots Park on Route 9,US Route 9 and College Ave,Tarrytown,NY,10591,Doug Ornstein,9149234837,http://www.downtoearthmarkets.com,Saturday  8:30am-1pm,May 25 - November 23,Y,41.08242,-73.85854,"US Route 9 and College Ave
(41.08242, -73.85854)"
Westchester,White Plains (International) Farmers' Market,"125 Court St. parking lot,btwn Martine Ave. & Main St.",125 Court St,White Plains,NY,10601,Johanna Safar,9143181067,,Wednesday  8am-4pm,May 1 - November 20,Y,41.02904,-73.76627,"125 Court St
(41.02904, -73.76627)"
Wyoming,Perry Farmers' Market,"Perry Festival Plaza, S. Main Street, Downtown Perry",Main St and Borden Ave,Perry,NY,14530,Rick Hauser,5859913893,http://www.perryfarmersmarket.com,Saturday  8:30-12:30,June 15 - September 28,Y,42.7184,-78.00206,"Main St and Borden Ave
(42.7184, -78.00206)"
Wyoming,Warsaw Farmers' Market,"Full Gospel Church parking lot,2444 Rt. 19",2456-2444 New York State Bicycle Route 19,Warsaw,NY,14569,Patricia Reiter,5855911358,,Thursday  12 Noon-4pm,July 11 - October 17,Y,42.76344,-78.13047,"2456-2444 New York State Bicycle Route 19
(42.76344, -78.13047)"
Yates,Branchport Farmers' Market,"Branchport Fire Dept., 3686 Rte 54A  (Winter - Branchport Library)",3686 Rte 54A,Branchport,NY,14418,Stacey Grabski,3154363135,,Tuesday  4pm-6:30pm(Nov-May alt. Tue 4-5:30),Year-round,Y,42.59953,-77.15125,"3686 Rte 54A
(42.59953, -77.15125)"
Yates,The Windmill Farmers' Market,3900 Route 14A at Hobson Roadin Penn Yan,3900 State Route 14A,Penn Yan,NY,14527,Juanita Dombroski,3155363032,http://www.thewindmill.com,Saturday  8am-4:30pm,April 27 - December 14,Y,42.57687,-77.03609,"3900 State Route 14A
(42.57687, -77.03609)"
Yates,Yates Co. Co-op Farm & Craft Market,"Main and Elm Sts., on sidewalk, Penn Yan",Main St and Elm St,Penn Yan,NY,14527,Rivka Davis,6072435234,,Saturday  7:30am-12 Noon,May 25 - October 19,Y,42.66095,-77.05365,"Main St and Elm St
(42.66095, -77.05365)"
